{
  "type": "FeatureCollection",
  "features": [
    {
      "type": "Feature",
      "properties": {
        "name": "Copenhagen and surrounding area",
        "note": "Hand-built boundary points following the requested regional outline. TODO: verify against authoritative coastline and place boundaries."
      },
      "geometry": {
        "type": "Polygon",
        "coordinates": [
          [
            [
              12.13,
              55.53
            ],
            [
              12.13,
              55.9
            ],
            [
              12.7,
              55.9
            ],
            [
              12.7,
              55.53
            ]
          ]
        ]
      }
    }
  ]
}
