{
  "type": "FeatureCollection",
  "features": [
    {
      "type": "Feature",
      "properties": {
        "name": "Avedøre St.",
        "lines": [
          "A"
        ],
        "source": "Rejseplanen GTFS"
      },
      "geometry": {
        "type": "Point",
        "coordinates": [
          12.454256,
          55.625183
        ]
      }
    },
    {
      "type": "Feature",
      "properties": {
        "name": "Bernstorffsvej St.",
        "lines": [
          "A"
        ],
        "source": "Rejseplanen GTFS"
      },
      "geometry": {
        "type": "Point",
        "coordinates": [
          12.557488,
          55.743052
        ]
      }
    },
    {
      "type": "Feature",
      "properties": {
        "name": "Bispebjerg St.",
        "lines": [
          "F"
        ],
        "source": "Rejseplanen GTFS"
      },
      "geometry": {
        "type": "Point",
        "coordinates": [
          12.541632,
          55.706348
        ]
      }
    },
    {
      "type": "Feature",
      "properties": {
        "name": "Brøndby Strand St.",
        "lines": [
          "A"
        ],
        "source": "Rejseplanen GTFS"
      },
      "geometry": {
        "type": "Point",
        "coordinates": [
          12.42266,
          55.620936
        ]
      }
    },
    {
      "type": "Feature",
      "properties": {
        "name": "Brøndbyøster St.",
        "lines": [
          "B"
        ],
        "source": "Rejseplanen GTFS"
      },
      "geometry": {
        "type": "Point",
        "coordinates": [
          12.440211,
          55.665068
        ]
      }
    },
    {
      "type": "Feature",
      "properties": {
        "name": "Buddinge St.",
        "lines": [
          "B"
        ],
        "source": "Rejseplanen GTFS"
      },
      "geometry": {
        "type": "Point",
        "coordinates": [
          12.494038,
          55.747383
        ]
      }
    },
    {
      "type": "Feature",
      "properties": {
        "name": "Carlsberg St.",
        "lines": [
          "B",
          "C"
        ],
        "source": "Rejseplanen GTFS"
      },
      "geometry": {
        "type": "Point",
        "coordinates": [
          12.537353,
          55.663257
        ]
      }
    },
    {
      "type": "Feature",
      "properties": {
        "name": "Charlottenlund St.",
        "lines": [
          "C",
          "F"
        ],
        "source": "Rejseplanen GTFS"
      },
      "geometry": {
        "type": "Point",
        "coordinates": [
          12.572144,
          55.751851
        ]
      }
    },
    {
      "type": "Feature",
      "properties": {
        "name": "Danshøj St.",
        "lines": [
          "B",
          "F"
        ],
        "source": "Rejseplanen GTFS"
      },
      "geometry": {
        "type": "Point",
        "coordinates": [
          12.493732,
          55.664274
        ]
      }
    },
    {
      "type": "Feature",
      "properties": {
        "name": "Dybbølsbro St.",
        "lines": [
          "A",
          "B",
          "C"
        ],
        "source": "Rejseplanen GTFS"
      },
      "geometry": {
        "type": "Point",
        "coordinates": [
          12.559511,
          55.664828
        ]
      }
    },
    {
      "type": "Feature",
      "properties": {
        "name": "Dyssegård St.",
        "lines": [
          "B"
        ],
        "source": "Rejseplanen GTFS"
      },
      "geometry": {
        "type": "Point",
        "coordinates": [
          12.535743,
          55.732629
        ]
      }
    },
    {
      "type": "Feature",
      "properties": {
        "name": "Emdrup St.",
        "lines": [
          "B"
        ],
        "source": "Rejseplanen GTFS"
      },
      "geometry": {
        "type": "Point",
        "coordinates": [
          12.540687,
          55.720887
        ]
      }
    },
    {
      "type": "Feature",
      "properties": {
        "name": "Flintholm St.",
        "lines": [
          "C",
          "F"
        ],
        "source": "Rejseplanen GTFS"
      },
      "geometry": {
        "type": "Point",
        "coordinates": [
          12.49866,
          55.685435
        ]
      }
    },
    {
      "type": "Feature",
      "properties": {
        "name": "Friheden St.",
        "lines": [
          "A"
        ],
        "source": "Rejseplanen GTFS"
      },
      "geometry": {
        "type": "Point",
        "coordinates": [
          12.482553,
          55.628887
        ]
      }
    },
    {
      "type": "Feature",
      "properties": {
        "name": "Fuglebakken St.",
        "lines": [
          "F"
        ],
        "source": "Rejseplanen GTFS"
      },
      "geometry": {
        "type": "Point",
        "coordinates": [
          12.527382,
          55.695429
        ]
      }
    },
    {
      "type": "Feature",
      "properties": {
        "name": "Gentofte St.",
        "lines": [
          "A"
        ],
        "source": "Rejseplanen GTFS"
      },
      "geometry": {
        "type": "Point",
        "coordinates": [
          12.54162,
          55.753509
        ]
      }
    },
    {
      "type": "Feature",
      "properties": {
        "name": "Glostrup St.",
        "lines": [
          "B"
        ],
        "source": "Rejseplanen GTFS"
      },
      "geometry": {
        "type": "Point",
        "coordinates": [
          12.397827,
          55.663148
        ]
      }
    },
    {
      "type": "Feature",
      "properties": {
        "name": "Grøndal St.",
        "lines": [
          "F"
        ],
        "source": "Rejseplanen GTFS"
      },
      "geometry": {
        "type": "Point",
        "coordinates": [
          12.516007,
          55.690738
        ]
      }
    },
    {
      "type": "Feature",
      "properties": {
        "name": "Hellerup St.",
        "lines": [
          "A",
          "C",
          "F"
        ],
        "source": "Rejseplanen GTFS"
      },
      "geometry": {
        "type": "Point",
        "coordinates": [
          12.567658,
          55.731022
        ]
      }
    },
    {
      "type": "Feature",
      "properties": {
        "name": "Herlev St.",
        "lines": [
          "C"
        ],
        "source": "Rejseplanen GTFS"
      },
      "geometry": {
        "type": "Point",
        "coordinates": [
          12.443674,
          55.718919
        ]
      }
    },
    {
      "type": "Feature",
      "properties": {
        "name": "Husum St.",
        "lines": [
          "C"
        ],
        "source": "Rejseplanen GTFS"
      },
      "geometry": {
        "type": "Point",
        "coordinates": [
          12.464033,
          55.709409
        ]
      }
    },
    {
      "type": "Feature",
      "properties": {
        "name": "Hvidovre St.",
        "lines": [
          "B"
        ],
        "source": "Rejseplanen GTFS"
      },
      "geometry": {
        "type": "Point",
        "coordinates": [
          12.474346,
          55.66451
        ]
      }
    },
    {
      "type": "Feature",
      "properties": {
        "name": "Islev St.",
        "lines": [
          "C"
        ],
        "source": "Rejseplanen GTFS"
      },
      "geometry": {
        "type": "Point",
        "coordinates": [
          12.469383,
          55.699529
        ]
      }
    },
    {
      "type": "Feature",
      "properties": {
        "name": "Jyllingevej St.",
        "lines": [
          "C"
        ],
        "source": "Rejseplanen GTFS"
      },
      "geometry": {
        "type": "Point",
        "coordinates": [
          12.477206,
          55.69081
        ]
      }
    },
    {
      "type": "Feature",
      "properties": {
        "name": "Jægersborg St.",
        "lines": [
          "A"
        ],
        "source": "Rejseplanen GTFS"
      },
      "geometry": {
        "type": "Point",
        "coordinates": [
          12.521561,
          55.761621
        ]
      }
    },
    {
      "type": "Feature",
      "properties": {
        "name": "KB Hallen St.",
        "lines": [
          "F"
        ],
        "source": "Rejseplanen GTFS"
      },
      "geometry": {
        "type": "Point",
        "coordinates": [
          12.492328,
          55.677963
        ]
      }
    },
    {
      "type": "Feature",
      "properties": {
        "name": "Kildebakke St.",
        "lines": [
          "B"
        ],
        "source": "Rejseplanen GTFS"
      },
      "geometry": {
        "type": "Point",
        "coordinates": [
          12.508535,
          55.744614
        ]
      }
    },
    {
      "type": "Feature",
      "properties": {
        "name": "Klampenborg St.",
        "lines": [
          "C",
          "F"
        ],
        "source": "Rejseplanen GTFS"
      },
      "geometry": {
        "type": "Point",
        "coordinates": [
          12.58773,
          55.777446
        ]
      }
    },
    {
      "type": "Feature",
      "properties": {
        "name": "København H",
        "lines": [
          "A",
          "B",
          "C"
        ],
        "source": "Rejseplanen GTFS"
      },
      "geometry": {
        "type": "Point",
        "coordinates": [
          12.565558,
          55.673059
        ]
      }
    },
    {
      "type": "Feature",
      "properties": {
        "name": "København Syd St.",
        "lines": [
          "A",
          "F"
        ],
        "source": "Rejseplanen GTFS"
      },
      "geometry": {
        "type": "Point",
        "coordinates": [
          12.516849,
          55.652626
        ]
      }
    },
    {
      "type": "Feature",
      "properties": {
        "name": "Langgade St.",
        "lines": [
          "C"
        ],
        "source": "Rejseplanen GTFS"
      },
      "geometry": {
        "type": "Point",
        "coordinates": [
          12.504224,
          55.66705
        ]
      }
    },
    {
      "type": "Feature",
      "properties": {
        "name": "Lyngby St.",
        "lines": [
          "A"
        ],
        "source": "Rejseplanen GTFS"
      },
      "geometry": {
        "type": "Point",
        "coordinates": [
          12.503101,
          55.768084
        ]
      }
    },
    {
      "type": "Feature",
      "properties": {
        "name": "Nordhavn St.",
        "lines": [
          "A",
          "B",
          "C"
        ],
        "source": "Rejseplanen GTFS"
      },
      "geometry": {
        "type": "Point",
        "coordinates": [
          12.590613,
          55.705616
        ]
      }
    },
    {
      "type": "Feature",
      "properties": {
        "name": "Nørrebro St.",
        "lines": [
          "F"
        ],
        "source": "Rejseplanen GTFS"
      },
      "geometry": {
        "type": "Point",
        "coordinates": [
          12.537806,
          55.700847
        ]
      }
    },
    {
      "type": "Feature",
      "properties": {
        "name": "Nørreport St.",
        "lines": [
          "A",
          "B",
          "C"
        ],
        "source": "Rejseplanen GTFS"
      },
      "geometry": {
        "type": "Point",
        "coordinates": [
          12.571804,
          55.683452
        ]
      }
    },
    {
      "type": "Feature",
      "properties": {
        "name": "Ordrup St.",
        "lines": [
          "C",
          "F"
        ],
        "source": "Rejseplanen GTFS"
      },
      "geometry": {
        "type": "Point",
        "coordinates": [
          12.583649,
          55.76307
        ]
      }
    },
    {
      "type": "Feature",
      "properties": {
        "name": "Peter Bangs Vej St.",
        "lines": [
          "C"
        ],
        "source": "Rejseplanen GTFS"
      },
      "geometry": {
        "type": "Point",
        "coordinates": [
          12.503443,
          55.67859
        ]
      }
    },
    {
      "type": "Feature",
      "properties": {
        "name": "Ryparken St.",
        "lines": [
          "B",
          "F"
        ],
        "source": "Rejseplanen GTFS"
      },
      "geometry": {
        "type": "Point",
        "coordinates": [
          12.559492,
          55.715362
        ]
      }
    },
    {
      "type": "Feature",
      "properties": {
        "name": "Rødovre St.",
        "lines": [
          "B"
        ],
        "source": "Rejseplanen GTFS"
      },
      "geometry": {
        "type": "Point",
        "coordinates": [
          12.458641,
          55.66482
        ]
      }
    },
    {
      "type": "Feature",
      "properties": {
        "name": "Sjælør St.",
        "lines": [
          "A"
        ],
        "source": "Rejseplanen GTFS"
      },
      "geometry": {
        "type": "Point",
        "coordinates": [
          12.527265,
          55.651742
        ]
      }
    },
    {
      "type": "Feature",
      "properties": {
        "name": "Svanemøllen St.",
        "lines": [
          "A",
          "B",
          "C"
        ],
        "source": "Rejseplanen GTFS"
      },
      "geometry": {
        "type": "Point",
        "coordinates": [
          12.578049,
          55.71555
        ]
      }
    },
    {
      "type": "Feature",
      "properties": {
        "name": "Sydhavn St.",
        "lines": [
          "A"
        ],
        "source": "Rejseplanen GTFS"
      },
      "geometry": {
        "type": "Point",
        "coordinates": [
          12.537174,
          55.654756
        ]
      }
    },
    {
      "type": "Feature",
      "properties": {
        "name": "Valby St.",
        "lines": [
          "B",
          "C"
        ],
        "source": "Rejseplanen GTFS"
      },
      "geometry": {
        "type": "Point",
        "coordinates": [
          12.51445,
          55.663997
        ]
      }
    },
    {
      "type": "Feature",
      "properties": {
        "name": "Vallensbæk St.",
        "lines": [
          "A"
        ],
        "source": "Rejseplanen GTFS"
      },
      "geometry": {
        "type": "Point",
        "coordinates": [
          12.388444,
          55.623253
        ]
      }
    },
    {
      "type": "Feature",
      "properties": {
        "name": "Vangede St.",
        "lines": [
          "B"
        ],
        "source": "Rejseplanen GTFS"
      },
      "geometry": {
        "type": "Point",
        "coordinates": [
          12.523342,
          55.739658
        ]
      }
    },
    {
      "type": "Feature",
      "properties": {
        "name": "Vanløse St.",
        "lines": [
          "C"
        ],
        "source": "Rejseplanen GTFS"
      },
      "geometry": {
        "type": "Point",
        "coordinates": [
          12.490603,
          55.687355
        ]
      }
    },
    {
      "type": "Feature",
      "properties": {
        "name": "Vesterport St.",
        "lines": [
          "A",
          "B",
          "C"
        ],
        "source": "Rejseplanen GTFS"
      },
      "geometry": {
        "type": "Point",
        "coordinates": [
          12.562087,
          55.676011
        ]
      }
    },
    {
      "type": "Feature",
      "properties": {
        "name": "Vigerslev Alle St.",
        "lines": [
          "F"
        ],
        "source": "Rejseplanen GTFS"
      },
      "geometry": {
        "type": "Point",
        "coordinates": [
          12.498686,
          55.659898
        ]
      }
    },
    {
      "type": "Feature",
      "properties": {
        "name": "Ålholm St.",
        "lines": [
          "F"
        ],
        "source": "Rejseplanen GTFS"
      },
      "geometry": {
        "type": "Point",
        "coordinates": [
          12.493114,
          55.67233
        ]
      }
    },
    {
      "type": "Feature",
      "properties": {
        "name": "Åmarken St.",
        "lines": [
          "A"
        ],
        "source": "Rejseplanen GTFS"
      },
      "geometry": {
        "type": "Point",
        "coordinates": [
          12.499699,
          55.640079
        ]
      }
    },
    {
      "type": "Feature",
      "properties": {
        "name": "Østerport St.",
        "lines": [
          "A",
          "B",
          "C"
        ],
        "source": "Rejseplanen GTFS"
      },
      "geometry": {
        "type": "Point",
        "coordinates": [
          12.587785,
          55.692499
        ]
      }
    }
  ]
}
