{
  "type": "FeatureCollection",
  "features": [
    {
      "type": "Feature",
      "properties": {
        "line": "A",
        "color": "#1f4e9e",
        "source": "Rejseplanen GTFS"
      },
      "geometry": {
        "type": "LineString",
        "coordinates": [
          [
            12.503101,
            55.768084
          ],
          [
            12.521561,
            55.761621
          ],
          [
            12.54162,
            55.753509
          ],
          [
            12.557488,
            55.743052
          ],
          [
            12.567658,
            55.731022
          ],
          [
            12.578049,
            55.71555
          ],
          [
            12.590613,
            55.705616
          ],
          [
            12.587785,
            55.692499
          ],
          [
            12.571804,
            55.683452
          ],
          [
            12.562087,
            55.676011
          ],
          [
            12.565558,
            55.673059
          ],
          [
            12.559511,
            55.664828
          ],
          [
            12.537174,
            55.654756
          ],
          [
            12.527265,
            55.651742
          ],
          [
            12.516849,
            55.652626
          ],
          [
            12.499699,
            55.640079
          ],
          [
            12.482553,
            55.628887
          ],
          [
            12.454256,
            55.625183
          ],
          [
            12.42266,
            55.620936
          ],
          [
            12.388444,
            55.623253
          ]
        ]
      }
    },
    {
      "type": "Feature",
      "properties": {
        "line": "B",
        "color": "#2f9e44",
        "source": "Rejseplanen GTFS"
      },
      "geometry": {
        "type": "LineString",
        "coordinates": [
          [
            12.494038,
            55.747383
          ],
          [
            12.508535,
            55.744614
          ],
          [
            12.523342,
            55.739658
          ],
          [
            12.535743,
            55.732629
          ],
          [
            12.540687,
            55.720887
          ],
          [
            12.559492,
            55.715362
          ],
          [
            12.578049,
            55.71555
          ],
          [
            12.590613,
            55.705616
          ],
          [
            12.587785,
            55.692499
          ],
          [
            12.571804,
            55.683452
          ],
          [
            12.562087,
            55.676011
          ],
          [
            12.565558,
            55.673059
          ],
          [
            12.559511,
            55.664828
          ],
          [
            12.537353,
            55.663257
          ],
          [
            12.51445,
            55.663997
          ],
          [
            12.493732,
            55.664274
          ],
          [
            12.474346,
            55.66451
          ],
          [
            12.458641,
            55.66482
          ],
          [
            12.440211,
            55.665068
          ],
          [
            12.397827,
            55.663148
          ]
        ]
      }
    },
    {
      "type": "Feature",
      "properties": {
        "line": "C",
        "color": "#f28e2b",
        "source": "Rejseplanen GTFS"
      },
      "geometry": {
        "type": "LineString",
        "coordinates": [
          [
            12.58773,
            55.777446
          ],
          [
            12.583649,
            55.76307
          ],
          [
            12.572144,
            55.751851
          ],
          [
            12.567658,
            55.731022
          ],
          [
            12.578049,
            55.71555
          ],
          [
            12.590613,
            55.705616
          ],
          [
            12.587785,
            55.692499
          ],
          [
            12.571804,
            55.683452
          ],
          [
            12.562087,
            55.676011
          ],
          [
            12.565558,
            55.673059
          ],
          [
            12.559511,
            55.664828
          ],
          [
            12.537353,
            55.663257
          ],
          [
            12.51445,
            55.663997
          ],
          [
            12.504224,
            55.66705
          ],
          [
            12.503443,
            55.67859
          ],
          [
            12.49866,
            55.685435
          ],
          [
            12.490603,
            55.687355
          ],
          [
            12.477206,
            55.69081
          ],
          [
            12.469383,
            55.699529
          ],
          [
            12.464033,
            55.709409
          ],
          [
            12.443674,
            55.718919
          ]
        ]
      }
    },
    {
      "type": "Feature",
      "properties": {
        "line": "F",
        "color": "#f2a900",
        "source": "Rejseplanen GTFS"
      },
      "geometry": {
        "type": "LineString",
        "coordinates": [
          [
            12.58773,
            55.777446
          ],
          [
            12.583649,
            55.76307
          ],
          [
            12.572144,
            55.751851
          ],
          [
            12.567658,
            55.731022
          ],
          [
            12.559492,
            55.715362
          ],
          [
            12.541632,
            55.706348
          ],
          [
            12.537806,
            55.700847
          ],
          [
            12.527382,
            55.695429
          ],
          [
            12.516007,
            55.690738
          ],
          [
            12.49866,
            55.685435
          ],
          [
            12.492328,
            55.677963
          ],
          [
            12.493114,
            55.67233
          ],
          [
            12.493732,
            55.664274
          ],
          [
            12.498686,
            55.659898
          ],
          [
            12.516849,
            55.652626
          ]
        ]
      }
    }
  ]
}
