{
  "type": "FeatureCollection",
  "features": [
    {
      "type": "Feature",
      "properties": {
        "name": "Aksel M\u00f8llers Have St.",
        "lines": [
          "M3"
        ],
        "networks": [
          "metro"
        ],
        "stop_id": "000008603342",
        "source": "Rejseplanen GTFS"
      },
      "geometry": {
        "type": "Point",
        "coordinates": [
          12.533187,
          55.686378
        ]
      }
    },
    {
      "type": "Feature",
      "properties": {
        "name": "Amager Strand St.",
        "lines": [
          "M2"
        ],
        "networks": [
          "metro"
        ],
        "stop_id": "000008603324",
        "source": "Rejseplanen GTFS"
      },
      "geometry": {
        "type": "Point",
        "coordinates": [
          12.631584,
          55.656519
        ]
      }
    },
    {
      "type": "Feature",
      "properties": {
        "name": "Amagerbro St.",
        "lines": [
          "M2"
        ],
        "networks": [
          "metro"
        ],
        "stop_id": "000008603321",
        "source": "Rejseplanen GTFS"
      },
      "geometry": {
        "type": "Point",
        "coordinates": [
          12.602929,
          55.663326
        ]
      }
    },
    {
      "type": "Feature",
      "properties": {
        "name": "Amagerbro St. (Amagerbrogade)",
        "lines": [
          "250S"
        ],
        "networks": [
          "bus"
        ],
        "stop_id": "000000027526",
        "source": "Rejseplanen GTFS"
      },
      "geometry": {
        "type": "Point",
        "coordinates": [
          12.601275,
          55.663509
        ]
      }
    },
    {
      "type": "Feature",
      "properties": {
        "name": "Amagerbro St. (Amagerbrogade)",
        "lines": [
          "250S"
        ],
        "networks": [
          "bus"
        ],
        "stop_id": "000000027527",
        "source": "Rejseplanen GTFS"
      },
      "geometry": {
        "type": "Point",
        "coordinates": [
          12.602233,
          55.66268
        ]
      }
    },
    {
      "type": "Feature",
      "properties": {
        "name": "Bella Center St.",
        "lines": [
          "M1"
        ],
        "networks": [
          "metro"
        ],
        "stop_id": "000008603313",
        "source": "Rejseplanen GTFS"
      },
      "geometry": {
        "type": "Point",
        "coordinates": [
          12.582928,
          55.638051
        ]
      }
    },
    {
      "type": "Feature",
      "properties": {
        "name": "Bellah\u00f8j (Frederikssundsvej)",
        "lines": [
          "250S",
          "350S"
        ],
        "networks": [
          "bus"
        ],
        "stop_id": "000000002149",
        "source": "Rejseplanen GTFS"
      },
      "geometry": {
        "type": "Point",
        "coordinates": [
          12.51715,
          55.706638
        ]
      }
    },
    {
      "type": "Feature",
      "properties": {
        "name": "Bellah\u00f8j (Frederikssundsvej)",
        "lines": [
          "350S"
        ],
        "networks": [
          "bus"
        ],
        "stop_id": "000000052838",
        "source": "Rejseplanen GTFS"
      },
      "geometry": {
        "type": "Point",
        "coordinates": [
          12.514966,
          55.70662
        ]
      }
    },
    {
      "type": "Feature",
      "properties": {
        "name": "Bellah\u00f8j (Frederikssundsvej)",
        "lines": [
          "250S"
        ],
        "networks": [
          "bus"
        ],
        "stop_id": "000000055952",
        "source": "Rejseplanen GTFS"
      },
      "geometry": {
        "type": "Point",
        "coordinates": [
          12.516326,
          55.706689
        ]
      }
    },
    {
      "type": "Feature",
      "properties": {
        "name": "Bispebjerg St.",
        "lines": [
          "F"
        ],
        "networks": [
          "s-tog"
        ],
        "stop_id": "000008600739",
        "source": "Rejseplanen GTFS"
      },
      "geometry": {
        "type": "Point",
        "coordinates": [
          12.541632,
          55.706348
        ]
      }
    },
    {
      "type": "Feature",
      "properties": {
        "name": "Borups Plads",
        "lines": [
          "250S"
        ],
        "networks": [
          "bus"
        ],
        "stop_id": "000000000352",
        "source": "Rejseplanen GTFS"
      },
      "geometry": {
        "type": "Point",
        "coordinates": [
          12.538869,
          55.691483
        ]
      }
    },
    {
      "type": "Feature",
      "properties": {
        "name": "Borups Plads (Lundtoftegade)",
        "lines": [
          "250S"
        ],
        "networks": [
          "bus"
        ],
        "stop_id": "000000052840",
        "source": "Rejseplanen GTFS"
      },
      "geometry": {
        "type": "Point",
        "coordinates": [
          12.538792,
          55.691683
        ]
      }
    },
    {
      "type": "Feature",
      "properties": {
        "name": "Br\u00f8nderslev All\u00e9 (Englandsvej)",
        "lines": [
          "250S"
        ],
        "networks": [
          "bus"
        ],
        "stop_id": "000000000843",
        "source": "Rejseplanen GTFS"
      },
      "geometry": {
        "type": "Point",
        "coordinates": [
          12.606339,
          55.618112
        ]
      }
    },
    {
      "type": "Feature",
      "properties": {
        "name": "Br\u00f8nderslev All\u00e9 (Englandsvej)",
        "lines": [
          "250S"
        ],
        "networks": [
          "bus"
        ],
        "stop_id": "000000000849",
        "source": "Rejseplanen GTFS"
      },
      "geometry": {
        "type": "Point",
        "coordinates": [
          12.605717,
          55.618949
        ]
      }
    },
    {
      "type": "Feature",
      "properties": {
        "name": "Br\u00f8nsh\u00f8j Torv (Frederikssundsvej)",
        "lines": [
          "350S"
        ],
        "networks": [
          "bus"
        ],
        "stop_id": "000000002010",
        "source": "Rejseplanen GTFS"
      },
      "geometry": {
        "type": "Point",
        "coordinates": [
          12.498931,
          55.704488
        ]
      }
    },
    {
      "type": "Feature",
      "properties": {
        "name": "Br\u00f8nsh\u00f8j Torv (Frederikssundsvej)",
        "lines": [
          "350S"
        ],
        "networks": [
          "bus"
        ],
        "stop_id": "000000002022",
        "source": "Rejseplanen GTFS"
      },
      "geometry": {
        "type": "Point",
        "coordinates": [
          12.498319,
          55.704587
        ]
      }
    },
    {
      "type": "Feature",
      "properties": {
        "name": "Carlsberg St.",
        "lines": [
          "B",
          "C",
          "F"
        ],
        "networks": [
          "s-tog"
        ],
        "stop_id": "000008600631",
        "source": "Rejseplanen GTFS"
      },
      "geometry": {
        "type": "Point",
        "coordinates": [
          12.537353,
          55.663257
        ]
      }
    },
    {
      "type": "Feature",
      "properties": {
        "name": "Christianshavn St.",
        "lines": [
          "M1",
          "M2"
        ],
        "networks": [
          "metro"
        ],
        "stop_id": "000008603309",
        "source": "Rejseplanen GTFS"
      },
      "geometry": {
        "type": "Point",
        "coordinates": [
          12.591385,
          55.672054
        ]
      }
    },
    {
      "type": "Feature",
      "properties": {
        "name": "Christianshavn St. (Torvegade)",
        "lines": [
          "250S"
        ],
        "networks": [
          "bus"
        ],
        "stop_id": "000000027524",
        "source": "Rejseplanen GTFS"
      },
      "geometry": {
        "type": "Point",
        "coordinates": [
          12.591321,
          55.672397
        ]
      }
    },
    {
      "type": "Feature",
      "properties": {
        "name": "Christianshavn St. (Torvegade)",
        "lines": [
          "250S"
        ],
        "networks": [
          "bus"
        ],
        "stop_id": "000000027525",
        "source": "Rejseplanen GTFS"
      },
      "geometry": {
        "type": "Point",
        "coordinates": [
          12.591794,
          55.672176
        ]
      }
    },
    {
      "type": "Feature",
      "properties": {
        "name": "DR Byen St.",
        "lines": [
          "M1"
        ],
        "networks": [
          "metro"
        ],
        "stop_id": "000008603311",
        "source": "Rejseplanen GTFS"
      },
      "geometry": {
        "type": "Point",
        "coordinates": [
          12.58899,
          55.655813
        ]
      }
    },
    {
      "type": "Feature",
      "properties": {
        "name": "Dansh\u00f8j St.",
        "lines": [
          "B",
          "F"
        ],
        "networks": [
          "s-tog"
        ],
        "stop_id": "000008600742",
        "source": "Rejseplanen GTFS"
      },
      "geometry": {
        "type": "Point",
        "coordinates": [
          12.493732,
          55.664274
        ]
      }
    },
    {
      "type": "Feature",
      "properties": {
        "name": "Drag\u00f8r Skole (Vestgr\u00f8nningen)",
        "lines": [
          "250S"
        ],
        "networks": [
          "bus"
        ],
        "stop_id": "000000000821",
        "source": "Rejseplanen GTFS"
      },
      "geometry": {
        "type": "Point",
        "coordinates": [
          12.670314,
          55.593021
        ]
      }
    },
    {
      "type": "Feature",
      "properties": {
        "name": "Drag\u00f8r Skole (Vestgr\u00f8nningen)",
        "lines": [
          "250S"
        ],
        "networks": [
          "bus"
        ],
        "stop_id": "000000000822",
        "source": "Rejseplanen GTFS"
      },
      "geometry": {
        "type": "Point",
        "coordinates": [
          12.670338,
          55.593614
        ]
      }
    },
    {
      "type": "Feature",
      "properties": {
        "name": "Drag\u00f8r Stationsplads",
        "lines": [
          "250S"
        ],
        "networks": [
          "bus"
        ],
        "stop_id": "000000000775",
        "source": "Rejseplanen GTFS"
      },
      "geometry": {
        "type": "Point",
        "coordinates": [
          12.669273,
          55.595301
        ]
      }
    },
    {
      "type": "Feature",
      "properties": {
        "name": "Dybb\u00f8lsbro St.",
        "lines": [
          "A",
          "B",
          "C",
          "F"
        ],
        "networks": [
          "s-tog"
        ],
        "stop_id": "000008600634",
        "source": "Rejseplanen GTFS"
      },
      "geometry": {
        "type": "Point",
        "coordinates": [
          12.559511,
          55.664828
        ]
      }
    },
    {
      "type": "Feature",
      "properties": {
        "name": "Elmegade (N\u00f8rrebrogade)",
        "lines": [
          "350S"
        ],
        "networks": [
          "bus"
        ],
        "stop_id": "000000045740",
        "source": "Rejseplanen GTFS"
      },
      "geometry": {
        "type": "Point",
        "coordinates": [
          12.558912,
          55.68852
        ]
      }
    },
    {
      "type": "Feature",
      "properties": {
        "name": "Elmegade (N\u00f8rrebrogade)",
        "lines": [
          "350S"
        ],
        "networks": [
          "bus"
        ],
        "stop_id": "000000045739",
        "source": "Rejseplanen GTFS"
      },
      "geometry": {
        "type": "Point",
        "coordinates": [
          12.55759,
          55.689044
        ]
      }
    },
    {
      "type": "Feature",
      "properties": {
        "name": "Emdrup St.",
        "lines": [
          "B"
        ],
        "networks": [
          "s-tog"
        ],
        "stop_id": "000008600688",
        "source": "Rejseplanen GTFS"
      },
      "geometry": {
        "type": "Point",
        "coordinates": [
          12.540687,
          55.720887
        ]
      }
    },
    {
      "type": "Feature",
      "properties": {
        "name": "Enghave Brygge St.",
        "lines": [
          "M4"
        ],
        "networks": [
          "metro"
        ],
        "stop_id": "000008603348",
        "source": "Rejseplanen GTFS"
      },
      "geometry": {
        "type": "Point",
        "coordinates": [
          12.556169,
          55.653766
        ]
      }
    },
    {
      "type": "Feature",
      "properties": {
        "name": "Enghave Plads St.",
        "lines": [
          "M3"
        ],
        "networks": [
          "metro"
        ],
        "stop_id": "000008603344",
        "source": "Rejseplanen GTFS"
      },
      "geometry": {
        "type": "Point",
        "coordinates": [
          12.545814,
          55.667284
        ]
      }
    },
    {
      "type": "Feature",
      "properties": {
        "name": "Fasanvej St.",
        "lines": [
          "M1",
          "M2"
        ],
        "networks": [
          "metro"
        ],
        "stop_id": "000008603304",
        "source": "Rejseplanen GTFS"
      },
      "geometry": {
        "type": "Point",
        "coordinates": [
          12.523102,
          55.681669
        ]
      }
    },
    {
      "type": "Feature",
      "properties": {
        "name": "Fasanv\u00e6nget (M\u00f8llevej)",
        "lines": [
          "250S"
        ],
        "networks": [
          "bus"
        ],
        "stop_id": "000000000832",
        "source": "Rejseplanen GTFS"
      },
      "geometry": {
        "type": "Point",
        "coordinates": [
          12.635331,
          55.588553
        ]
      }
    },
    {
      "type": "Feature",
      "properties": {
        "name": "Fasanv\u00e6nget (M\u00f8llevej)",
        "lines": [
          "250S"
        ],
        "networks": [
          "bus"
        ],
        "stop_id": "000000000811",
        "source": "Rejseplanen GTFS"
      },
      "geometry": {
        "type": "Point",
        "coordinates": [
          12.635351,
          55.588426
        ]
      }
    },
    {
      "type": "Feature",
      "properties": {
        "name": "Fem\u00f8ren St.",
        "lines": [
          "M2"
        ],
        "networks": [
          "metro"
        ],
        "stop_id": "000008603326",
        "source": "Rejseplanen GTFS"
      },
      "geometry": {
        "type": "Point",
        "coordinates": [
          12.638324,
          55.645348
        ]
      }
    },
    {
      "type": "Feature",
      "properties": {
        "name": "Flintholm St.",
        "lines": [
          "M1",
          "M2"
        ],
        "networks": [
          "metro"
        ],
        "stop_id": "000008603302",
        "source": "Rejseplanen GTFS"
      },
      "geometry": {
        "type": "Point",
        "coordinates": [
          12.499527,
          55.685868
        ]
      }
    },
    {
      "type": "Feature",
      "properties": {
        "name": "Flintholm St.",
        "lines": [
          "C",
          "F"
        ],
        "networks": [
          "s-tog"
        ],
        "stop_id": "000008600736",
        "source": "Rejseplanen GTFS"
      },
      "geometry": {
        "type": "Point",
        "coordinates": [
          12.49866,
          55.685435
        ]
      }
    },
    {
      "type": "Feature",
      "properties": {
        "name": "Forum St.",
        "lines": [
          "M1",
          "M2"
        ],
        "networks": [
          "metro"
        ],
        "stop_id": "000008603306",
        "source": "Rejseplanen GTFS"
      },
      "geometry": {
        "type": "Point",
        "coordinates": [
          12.552431,
          55.681821
        ]
      }
    },
    {
      "type": "Feature",
      "properties": {
        "name": "Forum St. (Rosen\u00f8rns All\u00e9)",
        "lines": [
          "250S"
        ],
        "networks": [
          "bus"
        ],
        "stop_id": "000000000678",
        "source": "Rejseplanen GTFS"
      },
      "geometry": {
        "type": "Point",
        "coordinates": [
          12.552789,
          55.681918
        ]
      }
    },
    {
      "type": "Feature",
      "properties": {
        "name": "Forum St. (Rosen\u00f8rns All\u00e9)",
        "lines": [
          "250S"
        ],
        "networks": [
          "bus"
        ],
        "stop_id": "000000000715",
        "source": "Rejseplanen GTFS"
      },
      "geometry": {
        "type": "Point",
        "coordinates": [
          12.552757,
          55.681919
        ]
      }
    },
    {
      "type": "Feature",
      "properties": {
        "name": "Frederiksberg All\u00e9 St.",
        "lines": [
          "M3"
        ],
        "networks": [
          "metro"
        ],
        "stop_id": "000008603343",
        "source": "Rejseplanen GTFS"
      },
      "geometry": {
        "type": "Point",
        "coordinates": [
          12.540351,
          55.673727
        ]
      }
    },
    {
      "type": "Feature",
      "properties": {
        "name": "Frederiksberg St.",
        "lines": [
          "M1",
          "M2",
          "M3"
        ],
        "networks": [
          "metro"
        ],
        "stop_id": "000008603305",
        "source": "Rejseplanen GTFS"
      },
      "geometry": {
        "type": "Point",
        "coordinates": [
          12.531719,
          55.681223
        ]
      }
    },
    {
      "type": "Feature",
      "properties": {
        "name": "Fuglebakken St.",
        "lines": [
          "F"
        ],
        "networks": [
          "s-tog"
        ],
        "stop_id": "000008600640",
        "source": "Rejseplanen GTFS"
      },
      "geometry": {
        "type": "Point",
        "coordinates": [
          12.527382,
          55.695429
        ]
      }
    },
    {
      "type": "Feature",
      "properties": {
        "name": "Gammel Strand St.",
        "lines": [
          "M3",
          "M4"
        ],
        "networks": [
          "metro"
        ],
        "stop_id": "000008603332",
        "source": "Rejseplanen GTFS"
      },
      "geometry": {
        "type": "Point",
        "coordinates": [
          12.579575,
          55.677749
        ]
      }
    },
    {
      "type": "Feature",
      "properties": {
        "name": "Gr\u00f8ndal St.",
        "lines": [
          "F"
        ],
        "networks": [
          "s-tog"
        ],
        "stop_id": "000008600641",
        "source": "Rejseplanen GTFS"
      },
      "geometry": {
        "type": "Point",
        "coordinates": [
          12.516007,
          55.690738
        ]
      }
    },
    {
      "type": "Feature",
      "properties": {
        "name": "Hans Knudsens Plads (Lyngbyvej)",
        "lines": [
          "150S"
        ],
        "networks": [
          "bus"
        ],
        "stop_id": "000000001369",
        "source": "Rejseplanen GTFS"
      },
      "geometry": {
        "type": "Point",
        "coordinates": [
          12.559843,
          55.712932
        ]
      }
    },
    {
      "type": "Feature",
      "properties": {
        "name": "Hans Knudsens Plads (Lyngbyvej)",
        "lines": [
          "150S"
        ],
        "networks": [
          "bus"
        ],
        "stop_id": "000000001406",
        "source": "Rejseplanen GTFS"
      },
      "geometry": {
        "type": "Point",
        "coordinates": [
          12.559749,
          55.712593
        ]
      }
    },
    {
      "type": "Feature",
      "properties": {
        "name": "Haraldsgade (Lyngbyvej)",
        "lines": [
          "150S"
        ],
        "networks": [
          "bus"
        ],
        "stop_id": "000000001407",
        "source": "Rejseplanen GTFS"
      },
      "geometry": {
        "type": "Point",
        "coordinates": [
          12.56139,
          55.709282
        ]
      }
    },
    {
      "type": "Feature",
      "properties": {
        "name": "Haraldsgade (Lyngbyvej)",
        "lines": [
          "150S"
        ],
        "networks": [
          "bus"
        ],
        "stop_id": "000000001368",
        "source": "Rejseplanen GTFS"
      },
      "geometry": {
        "type": "Point",
        "coordinates": [
          12.561142,
          55.709703
        ]
      }
    },
    {
      "type": "Feature",
      "properties": {
        "name": "Havneholmen St.",
        "lines": [
          "M4"
        ],
        "networks": [
          "metro"
        ],
        "stop_id": "000008603347",
        "source": "Rejseplanen GTFS"
      },
      "geometry": {
        "type": "Point",
        "coordinates": [
          12.559426,
          55.66091
        ]
      }
    },
    {
      "type": "Feature",
      "properties": {
        "name": "Hiller\u00f8dmotorvejen, Tingbjerg (Hiller\u00f8dmotorvejen)",
        "lines": [
          "250S"
        ],
        "networks": [
          "bus"
        ],
        "stop_id": "000000054886",
        "source": "Rejseplanen GTFS"
      },
      "geometry": {
        "type": "Point",
        "coordinates": [
          12.487801,
          55.724317
        ]
      }
    },
    {
      "type": "Feature",
      "properties": {
        "name": "Holl\u00e6nderv\u00e6nget (Krudtt\u00e5rnsvej)",
        "lines": [
          "250S"
        ],
        "networks": [
          "bus"
        ],
        "stop_id": "000000000827",
        "source": "Rejseplanen GTFS"
      },
      "geometry": {
        "type": "Point",
        "coordinates": [
          12.65185,
          55.584348
        ]
      }
    },
    {
      "type": "Feature",
      "properties": {
        "name": "Holl\u00e6nderv\u00e6nget (Krudtt\u00e5rnsvej)",
        "lines": [
          "250S"
        ],
        "networks": [
          "bus"
        ],
        "stop_id": "000000000816",
        "source": "Rejseplanen GTFS"
      },
      "geometry": {
        "type": "Point",
        "coordinates": [
          12.651483,
          55.584331
        ]
      }
    },
    {
      "type": "Feature",
      "properties": {
        "name": "Hovedbaneg\u00e5rden, Tivoli (Bernstorffsgade)",
        "lines": [
          "250S"
        ],
        "networks": [
          "bus"
        ],
        "stop_id": "000000010844",
        "source": "Rejseplanen GTFS"
      },
      "geometry": {
        "type": "Point",
        "coordinates": [
          12.56619,
          55.672843
        ]
      }
    },
    {
      "type": "Feature",
      "properties": {
        "name": "Hovedbaneg\u00e5rden, Tivoli (Bernstorffsgade)",
        "lines": [
          "250S"
        ],
        "networks": [
          "bus"
        ],
        "stop_id": "000000010843",
        "source": "Rejseplanen GTFS"
      },
      "geometry": {
        "type": "Point",
        "coordinates": [
          12.56705,
          55.672332
        ]
      }
    },
    {
      "type": "Feature",
      "properties": {
        "name": "Hulg\u00e5rds Plads (Frederikssundsvej)",
        "lines": [
          "250S",
          "350S"
        ],
        "networks": [
          "bus"
        ],
        "stop_id": "000000002161",
        "source": "Rejseplanen GTFS"
      },
      "geometry": {
        "type": "Point",
        "coordinates": [
          12.520439,
          55.706202
        ]
      }
    },
    {
      "type": "Feature",
      "properties": {
        "name": "Hulg\u00e5rds Plads (Frederikssundsvej)",
        "lines": [
          "250S",
          "350S"
        ],
        "networks": [
          "bus"
        ],
        "stop_id": "000000002150",
        "source": "Rejseplanen GTFS"
      },
      "geometry": {
        "type": "Point",
        "coordinates": [
          12.522579,
          55.705745
        ]
      }
    },
    {
      "type": "Feature",
      "properties": {
        "name": "Husum St.",
        "lines": [
          "C",
          "F"
        ],
        "networks": [
          "s-tog"
        ],
        "stop_id": "000008600705",
        "source": "Rejseplanen GTFS"
      },
      "geometry": {
        "type": "Point",
        "coordinates": [
          12.464033,
          55.709409
        ]
      }
    },
    {
      "type": "Feature",
      "properties": {
        "name": "Husum St. (Islevhusvej)",
        "lines": [
          "200S"
        ],
        "networks": [
          "bus"
        ],
        "stop_id": "000000002948",
        "source": "Rejseplanen GTFS"
      },
      "geometry": {
        "type": "Point",
        "coordinates": [
          12.463781,
          55.709271
        ]
      }
    },
    {
      "type": "Feature",
      "properties": {
        "name": "Husum St. (Islevhusvej)",
        "lines": [
          "200S"
        ],
        "networks": [
          "bus"
        ],
        "stop_id": "000000002961",
        "source": "Rejseplanen GTFS"
      },
      "geometry": {
        "type": "Point",
        "coordinates": [
          12.464222,
          55.709394
        ]
      }
    },
    {
      "type": "Feature",
      "properties": {
        "name": "Husum Torv (Frederikssundsvej)",
        "lines": [
          "200S",
          "350S"
        ],
        "networks": [
          "bus"
        ],
        "stop_id": "000000000258",
        "source": "Rejseplanen GTFS"
      },
      "geometry": {
        "type": "Point",
        "coordinates": [
          12.471629,
          55.712098
        ]
      }
    },
    {
      "type": "Feature",
      "properties": {
        "name": "Husum Torv (Frederikssundsvej)",
        "lines": [
          "350S"
        ],
        "networks": [
          "bus"
        ],
        "stop_id": "000000002148",
        "source": "Rejseplanen GTFS"
      },
      "geometry": {
        "type": "Point",
        "coordinates": [
          12.472235,
          55.711937
        ]
      }
    },
    {
      "type": "Feature",
      "properties": {
        "name": "Husum Torv (Islevhusvej)",
        "lines": [
          "200S"
        ],
        "networks": [
          "bus"
        ],
        "stop_id": "000000002947",
        "source": "Rejseplanen GTFS"
      },
      "geometry": {
        "type": "Point",
        "coordinates": [
          12.471872,
          55.711605
        ]
      }
    },
    {
      "type": "Feature",
      "properties": {
        "name": "Husumvej (Frederikssundsvej)",
        "lines": [
          "350S"
        ],
        "networks": [
          "bus"
        ],
        "stop_id": "000000002275",
        "source": "Rejseplanen GTFS"
      },
      "geometry": {
        "type": "Point",
        "coordinates": [
          12.478172,
          55.710276
        ]
      }
    },
    {
      "type": "Feature",
      "properties": {
        "name": "Husumvej (Frederikssundsvej)",
        "lines": [
          "350S"
        ],
        "networks": [
          "bus"
        ],
        "stop_id": "000000002121",
        "source": "Rejseplanen GTFS"
      },
      "geometry": {
        "type": "Point",
        "coordinates": [
          12.476155,
          55.710881
        ]
      }
    },
    {
      "type": "Feature",
      "properties": {
        "name": "H\u00f8sterk\u00f8bgade (Lundtoftegade)",
        "lines": [
          "250S"
        ],
        "networks": [
          "bus"
        ],
        "stop_id": "000000054680",
        "source": "Rejseplanen GTFS"
      },
      "geometry": {
        "type": "Point",
        "coordinates": [
          12.538248,
          55.694297
        ]
      }
    },
    {
      "type": "Feature",
      "properties": {
        "name": "H\u00f8sterk\u00f8bgade (Lundtoftegade)",
        "lines": [
          "250S"
        ],
        "networks": [
          "bus"
        ],
        "stop_id": "000000054679",
        "source": "Rejseplanen GTFS"
      },
      "geometry": {
        "type": "Point",
        "coordinates": [
          12.538276,
          55.694962
        ]
      }
    },
    {
      "type": "Feature",
      "properties": {
        "name": "Idr\u00e6tsstien (S\u00f8ndre Strandvej)",
        "lines": [
          "250S"
        ],
        "networks": [
          "bus"
        ],
        "stop_id": "000000000819",
        "source": "Rejseplanen GTFS"
      },
      "geometry": {
        "type": "Point",
        "coordinates": [
          12.66541,
          55.587269
        ]
      }
    },
    {
      "type": "Feature",
      "properties": {
        "name": "Idr\u00e6tsstien (S\u00f8ndre Strandvej)",
        "lines": [
          "250S"
        ],
        "networks": [
          "bus"
        ],
        "stop_id": "000000000824",
        "source": "Rejseplanen GTFS"
      },
      "geometry": {
        "type": "Point",
        "coordinates": [
          12.665462,
          55.587313
        ]
      }
    },
    {
      "type": "Feature",
      "properties": {
        "name": "Ingstrup All\u00e9 (Englandsvej)",
        "lines": [
          "250S"
        ],
        "networks": [
          "bus"
        ],
        "stop_id": "000000000844",
        "source": "Rejseplanen GTFS"
      },
      "geometry": {
        "type": "Point",
        "coordinates": [
          12.608931,
          55.615887
        ]
      }
    },
    {
      "type": "Feature",
      "properties": {
        "name": "Ingstrup All\u00e9 (Englandsvej)",
        "lines": [
          "250S"
        ],
        "networks": [
          "bus"
        ],
        "stop_id": "000000000848",
        "source": "Rejseplanen GTFS"
      },
      "geometry": {
        "type": "Point",
        "coordinates": [
          12.608724,
          55.616055
        ]
      }
    },
    {
      "type": "Feature",
      "properties": {
        "name": "Irlandsvej (T\u00e5rnbyvej)",
        "lines": [
          "250S"
        ],
        "networks": [
          "bus"
        ],
        "stop_id": "000000001017",
        "source": "Rejseplanen GTFS"
      },
      "geometry": {
        "type": "Point",
        "coordinates": [
          12.611887,
          55.634368
        ]
      }
    },
    {
      "type": "Feature",
      "properties": {
        "name": "Irlandsvej (T\u00e5rnbyvej)",
        "lines": [
          "250S"
        ],
        "networks": [
          "bus"
        ],
        "stop_id": "000000001022",
        "source": "Rejseplanen GTFS"
      },
      "geometry": {
        "type": "Point",
        "coordinates": [
          12.608991,
          55.633986
        ]
      }
    },
    {
      "type": "Feature",
      "properties": {
        "name": "Islands Brygge St.",
        "lines": [
          "M1"
        ],
        "networks": [
          "metro"
        ],
        "stop_id": "000008603310",
        "source": "Rejseplanen GTFS"
      },
      "geometry": {
        "type": "Point",
        "coordinates": [
          12.585217,
          55.663422
        ]
      }
    },
    {
      "type": "Feature",
      "properties": {
        "name": "Islev St.",
        "lines": [
          "C",
          "F"
        ],
        "networks": [
          "s-tog"
        ],
        "stop_id": "000008600704",
        "source": "Rejseplanen GTFS"
      },
      "geometry": {
        "type": "Point",
        "coordinates": [
          12.469383,
          55.699529
        ]
      }
    },
    {
      "type": "Feature",
      "properties": {
        "name": "Jagtvej (\u00c5gade)",
        "lines": [
          "250S"
        ],
        "networks": [
          "bus"
        ],
        "stop_id": "000000000235",
        "source": "Rejseplanen GTFS"
      },
      "geometry": {
        "type": "Point",
        "coordinates": [
          12.54089,
          55.688304
        ]
      }
    },
    {
      "type": "Feature",
      "properties": {
        "name": "Jagtvej (\u00c5gade)",
        "lines": [
          "250S"
        ],
        "networks": [
          "bus"
        ],
        "stop_id": "000000000228",
        "source": "Rejseplanen GTFS"
      },
      "geometry": {
        "type": "Point",
        "coordinates": [
          12.541997,
          55.687355
        ]
      }
    },
    {
      "type": "Feature",
      "properties": {
        "name": "Jyllingevej St.",
        "lines": [
          "C",
          "F"
        ],
        "networks": [
          "s-tog"
        ],
        "stop_id": "000008600734",
        "source": "Rejseplanen GTFS"
      },
      "geometry": {
        "type": "Point",
        "coordinates": [
          12.477206,
          55.69081
        ]
      }
    },
    {
      "type": "Feature",
      "properties": {
        "name": "KB Hallen St.",
        "lines": [
          "F"
        ],
        "networks": [
          "s-tog"
        ],
        "stop_id": "000008600740",
        "source": "Rejseplanen GTFS"
      },
      "geometry": {
        "type": "Point",
        "coordinates": [
          12.492328,
          55.677963
        ]
      }
    },
    {
      "type": "Feature",
      "properties": {
        "name": "Kastrup St.",
        "lines": [
          "M2"
        ],
        "networks": [
          "metro"
        ],
        "stop_id": "000008603327",
        "source": "Rejseplanen GTFS"
      },
      "geometry": {
        "type": "Point",
        "coordinates": [
          12.646732,
          55.635747
        ]
      }
    },
    {
      "type": "Feature",
      "properties": {
        "name": "Kongens Nytorv St.",
        "lines": [
          "M1",
          "M2",
          "M3",
          "M4"
        ],
        "networks": [
          "metro"
        ],
        "stop_id": "000008603308",
        "source": "Rejseplanen GTFS"
      },
      "geometry": {
        "type": "Point",
        "coordinates": [
          12.585228,
          55.679185
        ]
      }
    },
    {
      "type": "Feature",
      "properties": {
        "name": "Kongevejen (Stationsvej)",
        "lines": [
          "250S"
        ],
        "networks": [
          "bus"
        ],
        "stop_id": "000000000768",
        "source": "Rejseplanen GTFS"
      },
      "geometry": {
        "type": "Point",
        "coordinates": [
          12.670205,
          55.594571
        ]
      }
    },
    {
      "type": "Feature",
      "properties": {
        "name": "Korsvejens Skole (Amager Landevej)",
        "lines": [
          "250S"
        ],
        "networks": [
          "bus"
        ],
        "stop_id": "000000000792",
        "source": "Rejseplanen GTFS"
      },
      "geometry": {
        "type": "Point",
        "coordinates": [
          12.619376,
          55.636117
        ]
      }
    },
    {
      "type": "Feature",
      "properties": {
        "name": "Korsvejens Skole (T\u00e5rnbyvej)",
        "lines": [
          "250S"
        ],
        "networks": [
          "bus"
        ],
        "stop_id": "000000001020",
        "source": "Rejseplanen GTFS"
      },
      "geometry": {
        "type": "Point",
        "coordinates": [
          12.618696,
          55.635291
        ]
      }
    },
    {
      "type": "Feature",
      "properties": {
        "name": "K\u00f8benhavn H",
        "lines": [
          "M3",
          "M4"
        ],
        "networks": [
          "metro"
        ],
        "stop_id": "000008603330",
        "source": "Rejseplanen GTFS"
      },
      "geometry": {
        "type": "Point",
        "coordinates": [
          12.56412,
          55.671941
        ]
      }
    },
    {
      "type": "Feature",
      "properties": {
        "name": "K\u00f8benhavn H",
        "lines": [
          "A",
          "B",
          "C",
          "F"
        ],
        "networks": [
          "s-tog"
        ],
        "stop_id": "000008600626",
        "source": "Rejseplanen GTFS"
      },
      "geometry": {
        "type": "Point",
        "coordinates": [
          12.565558,
          55.673059
        ]
      }
    },
    {
      "type": "Feature",
      "properties": {
        "name": "K\u00f8benhavn Syd St.",
        "lines": [
          "M4"
        ],
        "networks": [
          "metro"
        ],
        "stop_id": "000008603351",
        "source": "Rejseplanen GTFS"
      },
      "geometry": {
        "type": "Point",
        "coordinates": [
          12.516427,
          55.65253
        ]
      }
    },
    {
      "type": "Feature",
      "properties": {
        "name": "K\u00f8benhavn Syd St.",
        "lines": [
          "A",
          "F"
        ],
        "networks": [
          "s-tog"
        ],
        "stop_id": "000008600783",
        "source": "Rejseplanen GTFS"
      },
      "geometry": {
        "type": "Point",
        "coordinates": [
          12.516849,
          55.652626
        ]
      }
    },
    {
      "type": "Feature",
      "properties": {
        "name": "K\u00f8benhavns Lufthavn St.",
        "lines": [
          "M2"
        ],
        "networks": [
          "metro"
        ],
        "stop_id": "000008603328",
        "source": "Rejseplanen GTFS"
      },
      "geometry": {
        "type": "Point",
        "coordinates": [
          12.64939,
          55.630137
        ]
      }
    },
    {
      "type": "Feature",
      "properties": {
        "name": "Langgade St.",
        "lines": [
          "C",
          "F"
        ],
        "networks": [
          "s-tog"
        ],
        "stop_id": "000008600701",
        "source": "Rejseplanen GTFS"
      },
      "geometry": {
        "type": "Point",
        "coordinates": [
          12.504224,
          55.66705
        ]
      }
    },
    {
      "type": "Feature",
      "properties": {
        "name": "Lergravsparken St.",
        "lines": [
          "M2"
        ],
        "networks": [
          "metro"
        ],
        "stop_id": "000008603322",
        "source": "Rejseplanen GTFS"
      },
      "geometry": {
        "type": "Point",
        "coordinates": [
          12.616417,
          55.662101
        ]
      }
    },
    {
      "type": "Feature",
      "properties": {
        "name": "Lindevang St.",
        "lines": [
          "M1",
          "M2"
        ],
        "networks": [
          "metro"
        ],
        "stop_id": "000008603303",
        "source": "Rejseplanen GTFS"
      },
      "geometry": {
        "type": "Point",
        "coordinates": [
          12.512873,
          55.683482
        ]
      }
    },
    {
      "type": "Feature",
      "properties": {
        "name": "L\u00f8jteg\u00e5rdsvej (Englandsvej)",
        "lines": [
          "250S"
        ],
        "networks": [
          "bus"
        ],
        "stop_id": "000000000850",
        "source": "Rejseplanen GTFS"
      },
      "geometry": {
        "type": "Point",
        "coordinates": [
          12.604498,
          55.623849
        ]
      }
    },
    {
      "type": "Feature",
      "properties": {
        "name": "L\u00f8jteg\u00e5rdsvej (Englandsvej)",
        "lines": [
          "250S"
        ],
        "networks": [
          "bus"
        ],
        "stop_id": "000000000842",
        "source": "Rejseplanen GTFS"
      },
      "geometry": {
        "type": "Point",
        "coordinates": [
          12.60456,
          55.622796
        ]
      }
    },
    {
      "type": "Feature",
      "properties": {
        "name": "Marmorkirken St.",
        "lines": [
          "M3",
          "M4"
        ],
        "networks": [
          "metro"
        ],
        "stop_id": "000008603333",
        "source": "Rejseplanen GTFS"
      },
      "geometry": {
        "type": "Point",
        "coordinates": [
          12.588632,
          55.685245
        ]
      }
    },
    {
      "type": "Feature",
      "properties": {
        "name": "Mellemvangen (Hareskovvej)",
        "lines": [
          "250S"
        ],
        "networks": [
          "bus"
        ],
        "stop_id": "000000000241",
        "source": "Rejseplanen GTFS"
      },
      "geometry": {
        "type": "Point",
        "coordinates": [
          12.508644,
          55.709453
        ]
      }
    },
    {
      "type": "Feature",
      "properties": {
        "name": "Mellemvangen (Hareskovvej)",
        "lines": [
          "250S"
        ],
        "networks": [
          "bus"
        ],
        "stop_id": "000000000223",
        "source": "Rejseplanen GTFS"
      },
      "geometry": {
        "type": "Point",
        "coordinates": [
          12.509179,
          55.709033
        ]
      }
    },
    {
      "type": "Feature",
      "properties": {
        "name": "Mozarts Plads St.",
        "lines": [
          "M4"
        ],
        "networks": [
          "metro"
        ],
        "stop_id": "000008603350",
        "source": "Rejseplanen GTFS"
      },
      "geometry": {
        "type": "Point",
        "coordinates": [
          12.533956,
          55.649049
        ]
      }
    },
    {
      "type": "Feature",
      "properties": {
        "name": "M\u00e5gev\u00e6nget (Krudtt\u00e5rnsvej)",
        "lines": [
          "250S"
        ],
        "networks": [
          "bus"
        ],
        "stop_id": "000000000814",
        "source": "Rejseplanen GTFS"
      },
      "geometry": {
        "type": "Point",
        "coordinates": [
          12.642722,
          55.583846
        ]
      }
    },
    {
      "type": "Feature",
      "properties": {
        "name": "M\u00e5gev\u00e6nget (Krudtt\u00e5rnsvej)",
        "lines": [
          "250S"
        ],
        "networks": [
          "bus"
        ],
        "stop_id": "000000000829",
        "source": "Rejseplanen GTFS"
      },
      "geometry": {
        "type": "Point",
        "coordinates": [
          12.641286,
          55.583763
        ]
      }
    },
    {
      "type": "Feature",
      "properties": {
        "name": "Nordhavn St.",
        "lines": [
          "M4"
        ],
        "networks": [
          "metro"
        ],
        "stop_id": "000008603346",
        "source": "Rejseplanen GTFS"
      },
      "geometry": {
        "type": "Point",
        "coordinates": [
          12.591834,
          55.707298
        ]
      }
    },
    {
      "type": "Feature",
      "properties": {
        "name": "Nordhavn St.",
        "lines": [
          "A",
          "B",
          "C"
        ],
        "networks": [
          "s-tog"
        ],
        "stop_id": "000008600653",
        "source": "Rejseplanen GTFS"
      },
      "geometry": {
        "type": "Point",
        "coordinates": [
          12.590613,
          55.705616
        ]
      }
    },
    {
      "type": "Feature",
      "properties": {
        "name": "Nuuks Plads St.",
        "lines": [
          "M3"
        ],
        "networks": [
          "metro"
        ],
        "stop_id": "000008603341",
        "source": "Rejseplanen GTFS"
      },
      "geometry": {
        "type": "Point",
        "coordinates": [
          12.542892,
          55.688796
        ]
      }
    },
    {
      "type": "Feature",
      "properties": {
        "name": "N\u00f8rre Campus (N\u00f8rre All\u00e9)",
        "lines": [
          "150S"
        ],
        "networks": [
          "bus"
        ],
        "stop_id": "000000006024",
        "source": "Rejseplanen GTFS"
      },
      "geometry": {
        "type": "Point",
        "coordinates": [
          12.561665,
          55.697081
        ]
      }
    },
    {
      "type": "Feature",
      "properties": {
        "name": "N\u00f8rre Campus (Tagensvej)",
        "lines": [
          "150S"
        ],
        "networks": [
          "bus"
        ],
        "stop_id": "000000006017",
        "source": "Rejseplanen GTFS"
      },
      "geometry": {
        "type": "Point",
        "coordinates": [
          12.562429,
          55.695863
        ]
      }
    },
    {
      "type": "Feature",
      "properties": {
        "name": "N\u00f8rre Farimagsgade (Frederiksborggade)",
        "lines": [
          "350S"
        ],
        "networks": [
          "bus"
        ],
        "stop_id": "000000002157",
        "source": "Rejseplanen GTFS"
      },
      "geometry": {
        "type": "Point",
        "coordinates": [
          12.567467,
          55.685286
        ]
      }
    },
    {
      "type": "Feature",
      "properties": {
        "name": "N\u00f8rrebro St.",
        "lines": [
          "M3"
        ],
        "networks": [
          "metro"
        ],
        "stop_id": "000008603339",
        "source": "Rejseplanen GTFS"
      },
      "geometry": {
        "type": "Point",
        "coordinates": [
          12.538082,
          55.700552
        ]
      }
    },
    {
      "type": "Feature",
      "properties": {
        "name": "N\u00f8rrebro St.",
        "lines": [
          "F"
        ],
        "networks": [
          "s-tog"
        ],
        "stop_id": "000008600642",
        "source": "Rejseplanen GTFS"
      },
      "geometry": {
        "type": "Point",
        "coordinates": [
          12.537806,
          55.700847
        ]
      }
    },
    {
      "type": "Feature",
      "properties": {
        "name": "N\u00f8rrebro St. (Folmer Bendtsens Plads)",
        "lines": [
          "250S"
        ],
        "networks": [
          "bus"
        ],
        "stop_id": "000000053198",
        "source": "Rejseplanen GTFS"
      },
      "geometry": {
        "type": "Point",
        "coordinates": [
          12.537999,
          55.700167
        ]
      }
    },
    {
      "type": "Feature",
      "properties": {
        "name": "N\u00f8rrebro St. (Frederikssundsvej)",
        "lines": [
          "250S",
          "350S"
        ],
        "networks": [
          "bus"
        ],
        "stop_id": "000000052657",
        "source": "Rejseplanen GTFS"
      },
      "geometry": {
        "type": "Point",
        "coordinates": [
          12.537526,
          55.701107
        ]
      }
    },
    {
      "type": "Feature",
      "properties": {
        "name": "N\u00f8rrebro St. (N\u00f8rrebrogade)",
        "lines": [
          "350S"
        ],
        "networks": [
          "bus"
        ],
        "stop_id": "000000002151",
        "source": "Rejseplanen GTFS"
      },
      "geometry": {
        "type": "Point",
        "coordinates": [
          12.538958,
          55.700562
        ]
      }
    },
    {
      "type": "Feature",
      "properties": {
        "name": "N\u00f8rrebros Runddel St.",
        "lines": [
          "M3"
        ],
        "networks": [
          "metro"
        ],
        "stop_id": "000008603340",
        "source": "Rejseplanen GTFS"
      },
      "geometry": {
        "type": "Point",
        "coordinates": [
          12.548899,
          55.693945
        ]
      }
    },
    {
      "type": "Feature",
      "properties": {
        "name": "N\u00f8rrebros Runddel St. (N\u00f8rrebrogade)",
        "lines": [
          "350S"
        ],
        "networks": [
          "bus"
        ],
        "stop_id": "000000002159",
        "source": "Rejseplanen GTFS"
      },
      "geometry": {
        "type": "Point",
        "coordinates": [
          12.549302,
          55.694014
        ]
      }
    },
    {
      "type": "Feature",
      "properties": {
        "name": "N\u00f8rrebros Runddel St. (N\u00f8rrebrogade)",
        "lines": [
          "350S"
        ],
        "networks": [
          "bus"
        ],
        "stop_id": "000000002152",
        "source": "Rejseplanen GTFS"
      },
      "geometry": {
        "type": "Point",
        "coordinates": [
          12.549527,
          55.693854
        ]
      }
    },
    {
      "type": "Feature",
      "properties": {
        "name": "N\u00f8rreport St.",
        "lines": [
          "M1",
          "M2"
        ],
        "networks": [
          "metro"
        ],
        "stop_id": "000008603307",
        "source": "Rejseplanen GTFS"
      },
      "geometry": {
        "type": "Point",
        "coordinates": [
          12.571044,
          55.683843
        ]
      }
    },
    {
      "type": "Feature",
      "properties": {
        "name": "N\u00f8rreport St.",
        "lines": [
          "A",
          "B",
          "C"
        ],
        "networks": [
          "s-tog"
        ],
        "stop_id": "000008600646",
        "source": "Rejseplanen GTFS"
      },
      "geometry": {
        "type": "Point",
        "coordinates": [
          12.571804,
          55.683452
        ]
      }
    },
    {
      "type": "Feature",
      "properties": {
        "name": "N\u00f8rreport St. (N\u00f8rre Voldgade)",
        "lines": [
          "150S",
          "350S"
        ],
        "networks": [
          "bus"
        ],
        "stop_id": "000000006584",
        "source": "Rejseplanen GTFS"
      },
      "geometry": {
        "type": "Point",
        "coordinates": [
          12.572622,
          55.684048
        ]
      }
    },
    {
      "type": "Feature",
      "properties": {
        "name": "N\u00f8rreport St. (N\u00f8rre Voldgade)",
        "lines": [
          "250S",
          "350S"
        ],
        "networks": [
          "bus"
        ],
        "stop_id": "000000028329",
        "source": "Rejseplanen GTFS"
      },
      "geometry": {
        "type": "Point",
        "coordinates": [
          12.572034,
          55.683706
        ]
      }
    },
    {
      "type": "Feature",
      "properties": {
        "name": "N\u00f8rreport St. (N\u00f8rre Voldgade)",
        "lines": [
          "150S",
          "250S"
        ],
        "networks": [
          "bus"
        ],
        "stop_id": "000000050460",
        "source": "Rejseplanen GTFS"
      },
      "geometry": {
        "type": "Point",
        "coordinates": [
          12.573346,
          55.684486
        ]
      }
    },
    {
      "type": "Feature",
      "properties": {
        "name": "Orientkaj St.",
        "lines": [
          "M4"
        ],
        "networks": [
          "metro"
        ],
        "stop_id": "000008603345",
        "source": "Rejseplanen GTFS"
      },
      "geometry": {
        "type": "Point",
        "coordinates": [
          12.595272,
          55.711612
        ]
      }
    },
    {
      "type": "Feature",
      "properties": {
        "name": "Peter Bangs Vej St.",
        "lines": [
          "C",
          "F"
        ],
        "networks": [
          "s-tog"
        ],
        "stop_id": "000008600702",
        "source": "Rejseplanen GTFS"
      },
      "geometry": {
        "type": "Point",
        "coordinates": [
          12.503443,
          55.67859
        ]
      }
    },
    {
      "type": "Feature",
      "properties": {
        "name": "Poul Henningsens Plads St.",
        "lines": [
          "M3"
        ],
        "networks": [
          "metro"
        ],
        "stop_id": "000008603336",
        "source": "Rejseplanen GTFS"
      },
      "geometry": {
        "type": "Point",
        "coordinates": [
          12.576709,
          55.70925
        ]
      }
    },
    {
      "type": "Feature",
      "properties": {
        "name": "Rigshospitalet Syd (Fredensgade)",
        "lines": [
          "150S"
        ],
        "networks": [
          "bus"
        ],
        "stop_id": "000000006018",
        "source": "Rejseplanen GTFS"
      },
      "geometry": {
        "type": "Point",
        "coordinates": [
          12.567154,
          55.693199
        ]
      }
    },
    {
      "type": "Feature",
      "properties": {
        "name": "Rigshospitalet Syd (Tagensvej)",
        "lines": [
          "150S"
        ],
        "networks": [
          "bus"
        ],
        "stop_id": "000000006023",
        "source": "Rejseplanen GTFS"
      },
      "geometry": {
        "type": "Point",
        "coordinates": [
          12.565619,
          55.694008
        ]
      }
    },
    {
      "type": "Feature",
      "properties": {
        "name": "Ryparken St.",
        "lines": [
          "B",
          "F"
        ],
        "networks": [
          "s-tog"
        ],
        "stop_id": "000008600644",
        "source": "Rejseplanen GTFS"
      },
      "geometry": {
        "type": "Point",
        "coordinates": [
          12.559492,
          55.715362
        ]
      }
    },
    {
      "type": "Feature",
      "properties": {
        "name": "Ryparken St. (Lyngbyvej)",
        "lines": [
          "150S"
        ],
        "networks": [
          "bus"
        ],
        "stop_id": "000000006660",
        "source": "Rejseplanen GTFS"
      },
      "geometry": {
        "type": "Point",
        "coordinates": [
          12.558819,
          55.715498
        ]
      }
    },
    {
      "type": "Feature",
      "properties": {
        "name": "Ryparken St. (Lyngbyvej)",
        "lines": [
          "150S"
        ],
        "networks": [
          "bus"
        ],
        "stop_id": "000000006524",
        "source": "Rejseplanen GTFS"
      },
      "geometry": {
        "type": "Point",
        "coordinates": [
          12.558149,
          55.714969
        ]
      }
    },
    {
      "type": "Feature",
      "properties": {
        "name": "R\u00e5dhuspladsen St.",
        "lines": [
          "M3",
          "M4"
        ],
        "networks": [
          "metro"
        ],
        "stop_id": "000008603331",
        "source": "Rejseplanen GTFS"
      },
      "geometry": {
        "type": "Point",
        "coordinates": [
          12.568803,
          55.676373
        ]
      }
    },
    {
      "type": "Feature",
      "properties": {
        "name": "R\u00e5dhuspladsen St. (H.C. Andersens Boulevard)",
        "lines": [
          "250S"
        ],
        "networks": [
          "bus"
        ],
        "stop_id": "000000047029",
        "source": "Rejseplanen GTFS"
      },
      "geometry": {
        "type": "Point",
        "coordinates": [
          12.567367,
          55.676333
        ]
      }
    },
    {
      "type": "Feature",
      "properties": {
        "name": "R\u00e5dhuspladsen St. (Vesterbrogade)",
        "lines": [
          "250S"
        ],
        "networks": [
          "bus"
        ],
        "stop_id": "000000047229",
        "source": "Rejseplanen GTFS"
      },
      "geometry": {
        "type": "Point",
        "coordinates": [
          12.567041,
          55.675551
        ]
      }
    },
    {
      "type": "Feature",
      "properties": {
        "name": "Sj\u00e6l\u00f8r St.",
        "lines": [
          "A"
        ],
        "networks": [
          "s-tog"
        ],
        "stop_id": "000008600761",
        "source": "Rejseplanen GTFS"
      },
      "geometry": {
        "type": "Point",
        "coordinates": [
          12.527265,
          55.651742
        ]
      }
    },
    {
      "type": "Feature",
      "properties": {
        "name": "Skjolds Plads St.",
        "lines": [
          "M3"
        ],
        "networks": [
          "metro"
        ],
        "stop_id": "000008603338",
        "source": "Rejseplanen GTFS"
      },
      "geometry": {
        "type": "Point",
        "coordinates": [
          12.548233,
          55.70328
        ]
      }
    },
    {
      "type": "Feature",
      "properties": {
        "name": "Slotsherrensvej (T\u00e5rnvej)",
        "lines": [
          "200S"
        ],
        "networks": [
          "bus"
        ],
        "stop_id": "000000000448",
        "source": "Rejseplanen GTFS"
      },
      "geometry": {
        "type": "Point",
        "coordinates": [
          12.452521,
          55.701865
        ]
      }
    },
    {
      "type": "Feature",
      "properties": {
        "name": "Sluseholmen St.",
        "lines": [
          "M4"
        ],
        "networks": [
          "metro"
        ],
        "stop_id": "000008603349",
        "source": "Rejseplanen GTFS"
      },
      "geometry": {
        "type": "Point",
        "coordinates": [
          12.543747,
          55.645836
        ]
      }
    },
    {
      "type": "Feature",
      "properties": {
        "name": "Store Magleby (Englandsvej)",
        "lines": [
          "250S"
        ],
        "networks": [
          "bus"
        ],
        "stop_id": "000000000782",
        "source": "Rejseplanen GTFS"
      },
      "geometry": {
        "type": "Point",
        "coordinates": [
          12.633899,
          55.596239
        ]
      }
    },
    {
      "type": "Feature",
      "properties": {
        "name": "Store Magleby (Englandsvej)",
        "lines": [
          "250S"
        ],
        "networks": [
          "bus"
        ],
        "stop_id": "000000000762",
        "source": "Rejseplanen GTFS"
      },
      "geometry": {
        "type": "Point",
        "coordinates": [
          12.634431,
          55.596151
        ]
      }
    },
    {
      "type": "Feature",
      "properties": {
        "name": "Store Magleby Strandvej (Krudtt\u00e5rnsvej)",
        "lines": [
          "250S"
        ],
        "networks": [
          "bus"
        ],
        "stop_id": "000000000813",
        "source": "Rejseplanen GTFS"
      },
      "geometry": {
        "type": "Point",
        "coordinates": [
          12.637616,
          55.583566
        ]
      }
    },
    {
      "type": "Feature",
      "properties": {
        "name": "Store Magleby Strandvej (M\u00f8llevej)",
        "lines": [
          "250S"
        ],
        "networks": [
          "bus"
        ],
        "stop_id": "000000000830",
        "source": "Rejseplanen GTFS"
      },
      "geometry": {
        "type": "Point",
        "coordinates": [
          12.636387,
          55.584007
        ]
      }
    },
    {
      "type": "Feature",
      "properties": {
        "name": "Sundby St.",
        "lines": [
          "M1"
        ],
        "networks": [
          "metro"
        ],
        "stop_id": "000008603312",
        "source": "Rejseplanen GTFS"
      },
      "geometry": {
        "type": "Point",
        "coordinates": [
          12.585728,
          55.645199
        ]
      }
    },
    {
      "type": "Feature",
      "properties": {
        "name": "Sundbyvester Plads (Amagerbrogade)",
        "lines": [
          "250S"
        ],
        "networks": [
          "bus"
        ],
        "stop_id": "000000001217",
        "source": "Rejseplanen GTFS"
      },
      "geometry": {
        "type": "Point",
        "coordinates": [
          12.614324,
          55.646319
        ]
      }
    },
    {
      "type": "Feature",
      "properties": {
        "name": "Sundbyvester Plads (Amagerbrogade)",
        "lines": [
          "250S"
        ],
        "networks": [
          "bus"
        ],
        "stop_id": "000000003000",
        "source": "Rejseplanen GTFS"
      },
      "geometry": {
        "type": "Point",
        "coordinates": [
          12.614193,
          55.646628
        ]
      }
    },
    {
      "type": "Feature",
      "properties": {
        "name": "Svanem\u00f8llen St.",
        "lines": [
          "A",
          "B",
          "C"
        ],
        "networks": [
          "s-tog"
        ],
        "stop_id": "000008600654",
        "source": "Rejseplanen GTFS"
      },
      "geometry": {
        "type": "Point",
        "coordinates": [
          12.578049,
          55.71555
        ]
      }
    },
    {
      "type": "Feature",
      "properties": {
        "name": "Sydhavn St.",
        "lines": [
          "A"
        ],
        "networks": [
          "s-tog"
        ],
        "stop_id": "000008600760",
        "source": "Rejseplanen GTFS"
      },
      "geometry": {
        "type": "Point",
        "coordinates": [
          12.537174,
          55.654756
        ]
      }
    },
    {
      "type": "Feature",
      "properties": {
        "name": "S\u00f8lvtorvet (S\u00f8lvgade)",
        "lines": [
          "150S"
        ],
        "networks": [
          "bus"
        ],
        "stop_id": "000000028274",
        "source": "Rejseplanen GTFS"
      },
      "geometry": {
        "type": "Point",
        "coordinates": [
          12.575103,
          55.689074
        ]
      }
    },
    {
      "type": "Feature",
      "properties": {
        "name": "S\u00f8lvtorvet (S\u00f8lvgade)",
        "lines": [
          "150S"
        ],
        "networks": [
          "bus"
        ],
        "stop_id": "000000006022",
        "source": "Rejseplanen GTFS"
      },
      "geometry": {
        "type": "Point",
        "coordinates": [
          12.575129,
          55.68919
        ]
      }
    },
    {
      "type": "Feature",
      "properties": {
        "name": "S\u00f8ndre R\u00f8sevej (Krudtt\u00e5rnsvej)",
        "lines": [
          "250S"
        ],
        "networks": [
          "bus"
        ],
        "stop_id": "000000000828",
        "source": "Rejseplanen GTFS"
      },
      "geometry": {
        "type": "Point",
        "coordinates": [
          12.646424,
          55.584051
        ]
      }
    },
    {
      "type": "Feature",
      "properties": {
        "name": "S\u00f8ndre R\u00f8sevej (Krudtt\u00e5rnsvej)",
        "lines": [
          "250S"
        ],
        "networks": [
          "bus"
        ],
        "stop_id": "000000000815",
        "source": "Rejseplanen GTFS"
      },
      "geometry": {
        "type": "Point",
        "coordinates": [
          12.647462,
          55.58411
        ]
      }
    },
    {
      "type": "Feature",
      "properties": {
        "name": "Trianglen St.",
        "lines": [
          "M3"
        ],
        "networks": [
          "metro"
        ],
        "stop_id": "000008603335",
        "source": "Rejseplanen GTFS"
      },
      "geometry": {
        "type": "Point",
        "coordinates": [
          12.57607,
          55.699135
        ]
      }
    },
    {
      "type": "Feature",
      "properties": {
        "name": "Tuborgvej (Lyngbyvej)",
        "lines": [
          "150S"
        ],
        "networks": [
          "bus"
        ],
        "stop_id": "000000006522",
        "source": "Rejseplanen GTFS"
      },
      "geometry": {
        "type": "Point",
        "coordinates": [
          12.551005,
          55.726802
        ]
      }
    },
    {
      "type": "Feature",
      "properties": {
        "name": "T\u00e5rnby St. (Englandsvej)",
        "lines": [
          "250S"
        ],
        "networks": [
          "bus"
        ],
        "stop_id": "000000000840",
        "source": "Rejseplanen GTFS"
      },
      "geometry": {
        "type": "Point",
        "coordinates": [
          12.602065,
          55.630062
        ]
      }
    },
    {
      "type": "Feature",
      "properties": {
        "name": "T\u00e5rnby St. (Englandsvej)",
        "lines": [
          "250S"
        ],
        "networks": [
          "bus"
        ],
        "stop_id": "000000000852",
        "source": "Rejseplanen GTFS"
      },
      "geometry": {
        "type": "Point",
        "coordinates": [
          12.60222,
          55.630705
        ]
      }
    },
    {
      "type": "Feature",
      "properties": {
        "name": "T\u00f8mmerup (Englandsvej)",
        "lines": [
          "250S"
        ],
        "networks": [
          "bus"
        ],
        "stop_id": "000000000761",
        "source": "Rejseplanen GTFS"
      },
      "geometry": {
        "type": "Point",
        "coordinates": [
          12.615257,
          55.608849
        ]
      }
    },
    {
      "type": "Feature",
      "properties": {
        "name": "T\u00f8mmerup (Englandsvej)",
        "lines": [
          "250S"
        ],
        "networks": [
          "bus"
        ],
        "stop_id": "000000000846",
        "source": "Rejseplanen GTFS"
      },
      "geometry": {
        "type": "Point",
        "coordinates": [
          12.614536,
          55.609814
        ]
      }
    },
    {
      "type": "Feature",
      "properties": {
        "name": "Universitetsparken (N\u00f8rre All\u00e9)",
        "lines": [
          "150S"
        ],
        "networks": [
          "bus"
        ],
        "stop_id": "000000006025",
        "source": "Rejseplanen GTFS"
      },
      "geometry": {
        "type": "Point",
        "coordinates": [
          12.561972,
          55.699761
        ]
      }
    },
    {
      "type": "Feature",
      "properties": {
        "name": "Universitetsparken (N\u00f8rre All\u00e9)",
        "lines": [
          "150S"
        ],
        "networks": [
          "bus"
        ],
        "stop_id": "000000006016",
        "source": "Rejseplanen GTFS"
      },
      "geometry": {
        "type": "Point",
        "coordinates": [
          12.562025,
          55.700164
        ]
      }
    },
    {
      "type": "Feature",
      "properties": {
        "name": "Valby St.",
        "lines": [
          "B",
          "C",
          "F"
        ],
        "networks": [
          "s-tog"
        ],
        "stop_id": "000008600624",
        "source": "Rejseplanen GTFS"
      },
      "geometry": {
        "type": "Point",
        "coordinates": [
          12.51445,
          55.663997
        ]
      }
    },
    {
      "type": "Feature",
      "properties": {
        "name": "Vanl\u00f8se St.",
        "lines": [
          "M1",
          "M2"
        ],
        "networks": [
          "metro"
        ],
        "stop_id": "000008603301",
        "source": "Rejseplanen GTFS"
      },
      "geometry": {
        "type": "Point",
        "coordinates": [
          12.491664,
          55.687297
        ]
      }
    },
    {
      "type": "Feature",
      "properties": {
        "name": "Vanl\u00f8se St.",
        "lines": [
          "C",
          "F"
        ],
        "networks": [
          "s-tog"
        ],
        "stop_id": "000008600703",
        "source": "Rejseplanen GTFS"
      },
      "geometry": {
        "type": "Point",
        "coordinates": [
          12.490603,
          55.687355
        ]
      }
    },
    {
      "type": "Feature",
      "properties": {
        "name": "Veks\u00f8vej (Frederikssundsvej)",
        "lines": [
          "350S"
        ],
        "networks": [
          "bus"
        ],
        "stop_id": "000000002008",
        "source": "Rejseplanen GTFS"
      },
      "geometry": {
        "type": "Point",
        "coordinates": [
          12.487907,
          55.706754
        ]
      }
    },
    {
      "type": "Feature",
      "properties": {
        "name": "Veks\u00f8vej (Frederikssundsvej)",
        "lines": [
          "350S"
        ],
        "networks": [
          "bus"
        ],
        "stop_id": "000000002024",
        "source": "Rejseplanen GTFS"
      },
      "geometry": {
        "type": "Point",
        "coordinates": [
          12.486258,
          55.707376
        ]
      }
    },
    {
      "type": "Feature",
      "properties": {
        "name": "Vestamager St.",
        "lines": [
          "M1"
        ],
        "networks": [
          "metro"
        ],
        "stop_id": "000008603317",
        "source": "Rejseplanen GTFS"
      },
      "geometry": {
        "type": "Point",
        "coordinates": [
          12.575297,
          55.619391
        ]
      }
    },
    {
      "type": "Feature",
      "properties": {
        "name": "Vesterport St.",
        "lines": [
          "A",
          "B",
          "C"
        ],
        "networks": [
          "s-tog"
        ],
        "stop_id": "000008600645",
        "source": "Rejseplanen GTFS"
      },
      "geometry": {
        "type": "Point",
        "coordinates": [
          12.562087,
          55.676011
        ]
      }
    },
    {
      "type": "Feature",
      "properties": {
        "name": "Vibenshus Runddel St.",
        "lines": [
          "M3"
        ],
        "networks": [
          "metro"
        ],
        "stop_id": "000008603337",
        "source": "Rejseplanen GTFS"
      },
      "geometry": {
        "type": "Point",
        "coordinates": [
          12.564,
          55.706284
        ]
      }
    },
    {
      "type": "Feature",
      "properties": {
        "name": "Vibenshus Runddel St. (Lyngbyvej)",
        "lines": [
          "150S"
        ],
        "networks": [
          "bus"
        ],
        "stop_id": "000000001367",
        "source": "Rejseplanen GTFS"
      },
      "geometry": {
        "type": "Point",
        "coordinates": [
          12.562899,
          55.706091
        ]
      }
    },
    {
      "type": "Feature",
      "properties": {
        "name": "Vibenshus Runddel St. (N\u00f8rre All\u00e9)",
        "lines": [
          "150S"
        ],
        "networks": [
          "bus"
        ],
        "stop_id": "000000002693",
        "source": "Rejseplanen GTFS"
      },
      "geometry": {
        "type": "Point",
        "coordinates": [
          12.562776,
          55.705609
        ]
      }
    },
    {
      "type": "Feature",
      "properties": {
        "name": "Vierdiget (Krudtt\u00e5rnsvej)",
        "lines": [
          "250S"
        ],
        "networks": [
          "bus"
        ],
        "stop_id": "000000000826",
        "source": "Rejseplanen GTFS"
      },
      "geometry": {
        "type": "Point",
        "coordinates": [
          12.657123,
          55.584037
        ]
      }
    },
    {
      "type": "Feature",
      "properties": {
        "name": "Vierdiget (Krudtt\u00e5rnsvej)",
        "lines": [
          "250S"
        ],
        "networks": [
          "bus"
        ],
        "stop_id": "000000000817",
        "source": "Rejseplanen GTFS"
      },
      "geometry": {
        "type": "Point",
        "coordinates": [
          12.657775,
          55.583703
        ]
      }
    },
    {
      "type": "Feature",
      "properties": {
        "name": "Vigerslev Alle St.",
        "lines": [
          "F"
        ],
        "networks": [
          "s-tog"
        ],
        "stop_id": "000008600804",
        "source": "Rejseplanen GTFS"
      },
      "geometry": {
        "type": "Point",
        "coordinates": [
          12.498686,
          55.659898
        ]
      }
    },
    {
      "type": "Feature",
      "properties": {
        "name": "\u00c5fl\u00f8jen (Frederikssundsvej)",
        "lines": [
          "350S"
        ],
        "networks": [
          "bus"
        ],
        "stop_id": "000000002146",
        "source": "Rejseplanen GTFS"
      },
      "geometry": {
        "type": "Point",
        "coordinates": [
          12.462322,
          55.715094
        ]
      }
    },
    {
      "type": "Feature",
      "properties": {
        "name": "\u00c5fl\u00f8jen (Frederikssundsvej)",
        "lines": [
          "350S"
        ],
        "networks": [
          "bus"
        ],
        "stop_id": "000000002164",
        "source": "Rejseplanen GTFS"
      },
      "geometry": {
        "type": "Point",
        "coordinates": [
          12.460523,
          55.715819
        ]
      }
    },
    {
      "type": "Feature",
      "properties": {
        "name": "\u00c5lholm St.",
        "lines": [
          "F"
        ],
        "networks": [
          "s-tog"
        ],
        "stop_id": "000008600741",
        "source": "Rejseplanen GTFS"
      },
      "geometry": {
        "type": "Point",
        "coordinates": [
          12.493114,
          55.67233
        ]
      }
    },
    {
      "type": "Feature",
      "properties": {
        "name": "\u00c5marken St.",
        "lines": [
          "A"
        ],
        "networks": [
          "s-tog"
        ],
        "stop_id": "000008600763",
        "source": "Rejseplanen GTFS"
      },
      "geometry": {
        "type": "Point",
        "coordinates": [
          12.499699,
          55.640079
        ]
      }
    },
    {
      "type": "Feature",
      "properties": {
        "name": "\u00d8restad St.",
        "lines": [
          "M1"
        ],
        "networks": [
          "metro"
        ],
        "stop_id": "000008603315",
        "source": "Rejseplanen GTFS"
      },
      "geometry": {
        "type": "Point",
        "coordinates": [
          12.579389,
          55.629055
        ]
      }
    },
    {
      "type": "Feature",
      "properties": {
        "name": "\u00d8restads Boulevard (Amager Boulevard)",
        "lines": [
          "250S"
        ],
        "networks": [
          "bus"
        ],
        "stop_id": "000000000738",
        "source": "Rejseplanen GTFS"
      },
      "geometry": {
        "type": "Point",
        "coordinates": [
          12.58865,
          55.667566
        ]
      }
    },
    {
      "type": "Feature",
      "properties": {
        "name": "\u00d8restads Boulevard (Amager Boulevard)",
        "lines": [
          "250S"
        ],
        "networks": [
          "bus"
        ],
        "stop_id": "000000000806",
        "source": "Rejseplanen GTFS"
      },
      "geometry": {
        "type": "Point",
        "coordinates": [
          12.586818,
          55.66788
        ]
      }
    },
    {
      "type": "Feature",
      "properties": {
        "name": "\u00d8resund St.",
        "lines": [
          "M2"
        ],
        "networks": [
          "metro"
        ],
        "stop_id": "000008603323",
        "source": "Rejseplanen GTFS"
      },
      "geometry": {
        "type": "Point",
        "coordinates": [
          12.628453,
          55.661701
        ]
      }
    },
    {
      "type": "Feature",
      "properties": {
        "name": "\u00d8resundsvej (Amagerbrogade)",
        "lines": [
          "250S"
        ],
        "networks": [
          "bus"
        ],
        "stop_id": "000000000729",
        "source": "Rejseplanen GTFS"
      },
      "geometry": {
        "type": "Point",
        "coordinates": [
          12.607143,
          55.658651
        ]
      }
    },
    {
      "type": "Feature",
      "properties": {
        "name": "\u00d8resundsvej (Amagerbrogade)",
        "lines": [
          "250S"
        ],
        "networks": [
          "bus"
        ],
        "stop_id": "000000000664",
        "source": "Rejseplanen GTFS"
      },
      "geometry": {
        "type": "Point",
        "coordinates": [
          12.608047,
          55.657932
        ]
      }
    },
    {
      "type": "Feature",
      "properties": {
        "name": "\u00d8sterport St.",
        "lines": [
          "M3",
          "M4"
        ],
        "networks": [
          "metro"
        ],
        "stop_id": "000008603334",
        "source": "Rejseplanen GTFS"
      },
      "geometry": {
        "type": "Point",
        "coordinates": [
          12.585352,
          55.693217
        ]
      }
    },
    {
      "type": "Feature",
      "properties": {
        "name": "\u00d8sterport St.",
        "lines": [
          "A",
          "B",
          "C"
        ],
        "networks": [
          "s-tog"
        ],
        "stop_id": "000008600650",
        "source": "Rejseplanen GTFS"
      },
      "geometry": {
        "type": "Point",
        "coordinates": [
          12.587785,
          55.692499
        ]
      }
    }
  ]
}
