{
  "type": "FeatureCollection",
  "features": [
    {
      "type": "Feature",
      "properties": {
        "network": "bus",
        "line": "150S",
        "route_id": "7266_700",
        "route": "Tuborgvej (Lyngbyvej) \u2013 Ryparken St. (Lyngbyvej)",
        "color": "#c7d22d",
        "source": "Rejseplanen GTFS",
        "service_state": ""
      },
      "geometry": {
        "type": "LineString",
        "coordinates": [
          [
            12.551005,
            55.726802
          ],
          [
            12.558149,
            55.714969
          ]
        ]
      }
    },
    {
      "type": "Feature",
      "properties": {
        "network": "bus",
        "line": "200S",
        "route_id": "7304_700",
        "route": "Husum Torv (Islevhusvej) \u2013 Husum Torv (Frederikssundsvej)",
        "color": "#38d22d",
        "source": "Rejseplanen GTFS",
        "service_state": ""
      },
      "geometry": {
        "type": "LineString",
        "coordinates": [
          [
            12.45189339902192,
            55.70091653391454
          ],
          [
            12.452521,
            55.701865
          ],
          [
            12.464222,
            55.709394
          ],
          [
            12.471629,
            55.712098
          ],
          [
            12.47033050133582,
            55.717548338614115
          ]
        ]
      }
    },
    {
      "type": "Feature",
      "properties": {
        "network": "bus",
        "line": "250S",
        "route_id": "7336_700",
        "route": "Drag\u00f8r Stationsplads \u2013 Christianshavn St. (Torvegade)",
        "color": "#2dd268",
        "source": "Rejseplanen GTFS",
        "service_state": ""
      },
      "geometry": {
        "type": "LineString",
        "coordinates": [
          [
            12.58865,
            55.667566
          ],
          [
            12.602233,
            55.66268
          ],
          [
            12.607143,
            55.658651
          ],
          [
            12.614324,
            55.646319
          ],
          [
            12.618696,
            55.635291
          ],
          [
            12.608991,
            55.633986
          ],
          [
            12.602065,
            55.630062
          ],
          [
            12.60456,
            55.622796
          ],
          [
            12.606339,
            55.618112
          ],
          [
            12.608931,
            55.615887
          ],
          [
            12.615257,
            55.608849
          ],
          [
            12.634431,
            55.596151
          ],
          [
            12.635351,
            55.588426
          ],
          [
            12.637616,
            55.583566
          ],
          [
            12.642722,
            55.583846
          ],
          [
            12.647462,
            55.58411
          ],
          [
            12.651483,
            55.584331
          ],
          [
            12.657775,
            55.583703
          ],
          [
            12.66541,
            55.587269
          ],
          [
            12.670314,
            55.593021
          ],
          [
            12.670205,
            55.594571
          ],
          [
            12.669273,
            55.595301
          ]
        ]
      }
    },
    {
      "type": "Feature",
      "properties": {
        "network": "bus",
        "line": "350S",
        "route_id": "7387_700",
        "route": "\u00c5fl\u00f8jen (Frederikssundsvej) \u2013 \u00c5fl\u00f8jen (Frederikssundsvej)",
        "color": "#802dd2",
        "source": "Rejseplanen GTFS",
        "service_state": ""
      },
      "geometry": {
        "type": "LineString",
        "coordinates": [
          [
            12.572034,
            55.683706
          ],
          [
            12.567467,
            55.685286
          ],
          [
            12.55759,
            55.689044
          ],
          [
            12.549302,
            55.694014
          ],
          [
            12.537526,
            55.701107
          ],
          [
            12.520439,
            55.706202
          ],
          [
            12.514966,
            55.70662
          ],
          [
            12.498319,
            55.704587
          ],
          [
            12.486258,
            55.707376
          ],
          [
            12.476155,
            55.710881
          ],
          [
            12.471629,
            55.712098
          ],
          [
            12.460523,
            55.715819
          ],
          [
            12.45872436439698,
            55.71651421782843
          ]
        ]
      }
    },
    {
      "type": "Feature",
      "properties": {
        "network": "metro",
        "line": "M1",
        "route_id": "21296_1",
        "route": "Vanl\u00f8se St. \u2013 Vestamager St.",
        "color": "#00a650",
        "source": "Rejseplanen GTFS",
        "service_state": ""
      },
      "geometry": {
        "type": "LineString",
        "coordinates": [
          [
            12.491664,
            55.687297
          ],
          [
            12.499527,
            55.685868
          ],
          [
            12.512873,
            55.683482
          ],
          [
            12.523102,
            55.681669
          ],
          [
            12.531719,
            55.681223
          ],
          [
            12.552431,
            55.681821
          ],
          [
            12.571044,
            55.683843
          ],
          [
            12.585228,
            55.679185
          ],
          [
            12.591385,
            55.672054
          ],
          [
            12.585217,
            55.663422
          ],
          [
            12.58899,
            55.655813
          ],
          [
            12.585728,
            55.645199
          ],
          [
            12.582928,
            55.638051
          ],
          [
            12.579389,
            55.629055
          ],
          [
            12.575297,
            55.619391
          ]
        ]
      }
    },
    {
      "type": "Feature",
      "properties": {
        "network": "metro",
        "line": "M2",
        "route_id": "21295_1",
        "route": "Vanl\u00f8se St. \u2013 K\u00f8benhavns Lufthavn St.",
        "color": "#f5c400",
        "source": "Rejseplanen GTFS",
        "service_state": ""
      },
      "geometry": {
        "type": "LineString",
        "coordinates": [
          [
            12.491664,
            55.687297
          ],
          [
            12.499527,
            55.685868
          ],
          [
            12.512873,
            55.683482
          ],
          [
            12.523102,
            55.681669
          ],
          [
            12.531719,
            55.681223
          ],
          [
            12.552431,
            55.681821
          ],
          [
            12.571044,
            55.683843
          ],
          [
            12.585228,
            55.679185
          ],
          [
            12.591385,
            55.672054
          ],
          [
            12.602929,
            55.663326
          ],
          [
            12.616417,
            55.662101
          ],
          [
            12.628453,
            55.661701
          ],
          [
            12.631584,
            55.656519
          ],
          [
            12.638324,
            55.645348
          ],
          [
            12.646732,
            55.635747
          ],
          [
            12.64939,
            55.630137
          ]
        ]
      }
    },
    {
      "type": "Feature",
      "properties": {
        "network": "metro",
        "line": "M3",
        "route_id": "24759_1",
        "route": "K\u00f8benhavn H \u2013 K\u00f8benhavn H",
        "color": "#e03b3b",
        "source": "Rejseplanen GTFS",
        "service_state": ""
      },
      "geometry": {
        "type": "LineString",
        "coordinates": [
          [
            12.56412,
            55.671941
          ],
          [
            12.568803,
            55.676373
          ],
          [
            12.579575,
            55.677749
          ],
          [
            12.585228,
            55.679185
          ],
          [
            12.588632,
            55.685245
          ],
          [
            12.585352,
            55.693217
          ],
          [
            12.57607,
            55.699135
          ],
          [
            12.576709,
            55.70925
          ],
          [
            12.564,
            55.706284
          ],
          [
            12.548233,
            55.70328
          ],
          [
            12.538082,
            55.700552
          ],
          [
            12.548899,
            55.693945
          ],
          [
            12.542892,
            55.688796
          ],
          [
            12.533187,
            55.686378
          ],
          [
            12.531719,
            55.681223
          ],
          [
            12.540351,
            55.673727
          ],
          [
            12.545814,
            55.667284
          ],
          [
            12.56412,
            55.671941
          ]
        ]
      }
    },
    {
      "type": "Feature",
      "properties": {
        "network": "metro",
        "line": "M4",
        "route_id": "24864_1",
        "route": "K\u00f8benhavn Syd St. \u2013 Orientkaj St.",
        "color": "#0072bc",
        "source": "Rejseplanen GTFS",
        "service_state": ""
      },
      "geometry": {
        "type": "LineString",
        "coordinates": [
          [
            12.516427,
            55.65253
          ],
          [
            12.533956,
            55.649049
          ],
          [
            12.543747,
            55.645836
          ],
          [
            12.556169,
            55.653766
          ],
          [
            12.559426,
            55.66091
          ],
          [
            12.56412,
            55.671941
          ],
          [
            12.568803,
            55.676373
          ],
          [
            12.579575,
            55.677749
          ],
          [
            12.585228,
            55.679185
          ],
          [
            12.588632,
            55.685245
          ],
          [
            12.585352,
            55.693217
          ],
          [
            12.591834,
            55.707298
          ],
          [
            12.595272,
            55.711612
          ]
        ]
      }
    },
    {
      "type": "Feature",
      "properties": {
        "network": "s-tog",
        "line": "A",
        "route_id": "16448_109",
        "route": "Svanem\u00f8llen St. \u2013 \u00c5marken St.",
        "color": "#1f4e9e",
        "source": "Rejseplanen GTFS",
        "service_state": ""
      },
      "geometry": {
        "type": "LineString",
        "coordinates": [
          [
            12.499699,
            55.640079
          ],
          [
            12.516849,
            55.652626
          ],
          [
            12.527265,
            55.651742
          ],
          [
            12.537174,
            55.654756
          ],
          [
            12.559511,
            55.664828
          ],
          [
            12.565558,
            55.673059
          ],
          [
            12.562087,
            55.676011
          ],
          [
            12.571804,
            55.683452
          ],
          [
            12.587785,
            55.692499
          ],
          [
            12.590613,
            55.705616
          ],
          [
            12.578049,
            55.71555
          ]
        ]
      }
    },
    {
      "type": "Feature",
      "properties": {
        "network": "s-tog",
        "line": "B",
        "route_id": "16449_109",
        "route": "Emdrup St. \u2013 Dansh\u00f8j St.",
        "color": "#2f9e44",
        "source": "Rejseplanen GTFS",
        "service_state": ""
      },
      "geometry": {
        "type": "LineString",
        "coordinates": [
          [
            12.540687,
            55.720887
          ],
          [
            12.559492,
            55.715362
          ],
          [
            12.578049,
            55.71555
          ],
          [
            12.590613,
            55.705616
          ],
          [
            12.587785,
            55.692499
          ],
          [
            12.571804,
            55.683452
          ],
          [
            12.562087,
            55.676011
          ],
          [
            12.565558,
            55.673059
          ],
          [
            12.559511,
            55.664828
          ],
          [
            12.537353,
            55.663257
          ],
          [
            12.51445,
            55.663997
          ],
          [
            12.493732,
            55.664274
          ]
        ]
      }
    },
    {
      "type": "Feature",
      "properties": {
        "network": "s-tog",
        "line": "C",
        "route_id": "16451_109",
        "route": "Svanem\u00f8llen St. \u2013 Husum St.",
        "color": "#f28e2b",
        "source": "Rejseplanen GTFS",
        "service_state": ""
      },
      "geometry": {
        "type": "LineString",
        "coordinates": [
          [
            12.578049,
            55.71555
          ],
          [
            12.590613,
            55.705616
          ],
          [
            12.587785,
            55.692499
          ],
          [
            12.571804,
            55.683452
          ],
          [
            12.562087,
            55.676011
          ],
          [
            12.565558,
            55.673059
          ],
          [
            12.559511,
            55.664828
          ],
          [
            12.537353,
            55.663257
          ],
          [
            12.51445,
            55.663997
          ],
          [
            12.504224,
            55.66705
          ],
          [
            12.503443,
            55.67859
          ],
          [
            12.49866,
            55.685435
          ],
          [
            12.490603,
            55.687355
          ],
          [
            12.477206,
            55.69081
          ],
          [
            12.469383,
            55.699529
          ],
          [
            12.464033,
            55.709409
          ]
        ]
      }
    },
    {
      "type": "Feature",
      "properties": {
        "network": "s-tog",
        "line": "F",
        "route_id": "16453_109",
        "route": "Ryparken St. \u2013 Husum St.",
        "color": "#f2a900",
        "source": "Rejseplanen GTFS",
        "service_state": ""
      },
      "geometry": {
        "type": "LineString",
        "coordinates": [
          [
            12.565558,
            55.673059
          ],
          [
            12.559511,
            55.664828
          ],
          [
            12.537353,
            55.663257
          ],
          [
            12.51445,
            55.663997
          ],
          [
            12.504224,
            55.66705
          ],
          [
            12.503443,
            55.67859
          ],
          [
            12.49866,
            55.685435
          ],
          [
            12.490603,
            55.687355
          ],
          [
            12.477206,
            55.69081
          ],
          [
            12.469383,
            55.699529
          ],
          [
            12.464033,
            55.709409
          ]
        ]
      }
    }
  ]
}
